{"type": "FeatureCollection", "features": [{"type": "Feature", "geometry": {"type": "Point", "coordinates": [87.64375, 25.31389]}, "properties": {"site_id": 1, "n_pixels": 6, "area_km2": 1.17, "first_radiance": 0.0, "last_radiance": 5.8, "diff": 5.8, "log_ratio": 1.917, "slope": 0.641, "peak_last": 9.25, "total_gain": 34.8, "type": "emergence"}}, {"type": "Feature", "geometry": {"type": "Point", "coordinates": [87.61597, 25.30486]}, "properties": {"site_id": 2, "n_pixels": 3, "area_km2": 0.58, "first_radiance": 0.0, "last_radiance": 3.13, "diff": 3.13, "log_ratio": 1.419, "slope": 0.284, "peak_last": 3.26, "total_gain": 9.4, "type": "emergence"}}, {"type": "Feature", "geometry": {"type": "Point", "coordinates": [87.6, 25.28333]}, "properties": {"site_id": 3, "n_pixels": 4, "area_km2": 0.78, "first_radiance": 0.0, "last_radiance": 6.29, "diff": 6.29, "log_ratio": 1.987, "slope": 0.678, "peak_last": 6.94, "total_gain": 25.2, "type": "emergence"}}, {"type": "Feature", "geometry": {"type": "Point", "coordinates": [87.55347, 25.25486]}, "properties": {"site_id": 4, "n_pixels": 3, "area_km2": 0.58, "first_radiance": 0.87, "last_radiance": 3.41, "diff": 2.54, "log_ratio": 0.857, "slope": 0.24, "peak_last": 3.71, "total_gain": 7.6, "type": "emergence"}}, {"type": "Feature", "geometry": {"type": "Point", "coordinates": [87.59427, 25.24297]}, "properties": {"site_id": 5, "n_pixels": 16, "area_km2": 3.11, "first_radiance": 0.82, "last_radiance": 4.88, "diff": 4.06, "log_ratio": 1.17, "slope": 0.446, "peak_last": 9.04, "total_gain": 64.9, "type": "emergence"}}, {"type": "Feature", "geometry": {"type": "Point", "coordinates": [87.69754, 25.24981]}, "properties": {"site_id": 6, "n_pixels": 11, "area_km2": 2.14, "first_radiance": 0.85, "last_radiance": 6.34, "diff": 5.49, "log_ratio": 1.378, "slope": 0.773, "peak_last": 11.42, "total_gain": 60.4, "type": "emergence"}}, {"type": "Feature", "geometry": {"type": "Point", "coordinates": [87.63264, 25.23924]}, "properties": {"site_id": 7, "n_pixels": 12, "area_km2": 2.34, "first_radiance": 12.47, "last_radiance": 21.37, "diff": 8.89, "log_ratio": 0.507, "slope": 0.736, "peak_last": 28.41, "total_gain": 106.7, "type": "growth"}}, {"type": "Feature", "geometry": {"type": "Point", "coordinates": [87.49653, 25.14236]}, "properties": {"site_id": 8, "n_pixels": 3, "area_km2": 0.58, "first_radiance": 0.76, "last_radiance": 3.4, "diff": 2.64, "log_ratio": 0.918, "slope": 0.283, "peak_last": 3.93, "total_gain": 7.9, "type": "emergence"}}, {"type": "Feature", "geometry": {"type": "Point", "coordinates": [87.425, 25.11667]}, "properties": {"site_id": 9, "n_pixels": 4, "area_km2": 0.78, "first_radiance": 0.27, "last_radiance": 4.63, "diff": 4.36, "log_ratio": 1.488, "slope": 0.471, "peak_last": 5.68, "total_gain": 17.4, "type": "emergence"}}, {"type": "Feature", "geometry": {"type": "Point", "coordinates": [87.38264, 25.04306]}, "properties": {"site_id": 10, "n_pixels": 18, "area_km2": 3.51, "first_radiance": 3.37, "last_radiance": 11.24, "diff": 7.86, "log_ratio": 1.029, "slope": 0.768, "peak_last": 14.51, "total_gain": 141.6, "type": "growth"}}, {"type": "Feature", "geometry": {"type": "Point", "coordinates": [87.83507, 25.04514]}, "properties": {"site_id": 11, "n_pixels": 24, "area_km2": 4.68, "first_radiance": 1.07, "last_radiance": 5.92, "diff": 4.85, "log_ratio": 1.209, "slope": 0.45, "peak_last": 15.9, "total_gain": 116.4, "type": "emergence"}}, {"type": "Feature", "geometry": {"type": "Point", "coordinates": [87.34708, 25.04403]}, "properties": {"site_id": 12, "n_pixels": 15, "area_km2": 2.92, "first_radiance": 8.17, "last_radiance": 15.86, "diff": 7.69, "log_ratio": 0.609, "slope": 0.818, "peak_last": 24.16, "total_gain": 115.3, "type": "growth"}}, {"type": "Feature", "geometry": {"type": "Point", "coordinates": [87.3, 25.04688]}, "properties": {"site_id": 13, "n_pixels": 4, "area_km2": 0.78, "first_radiance": 0.93, "last_radiance": 3.27, "diff": 2.34, "log_ratio": 0.792, "slope": 0.264, "peak_last": 3.52, "total_gain": 9.3, "type": "emergence"}}, {"type": "Feature", "geometry": {"type": "Point", "coordinates": [87.37102, 24.99527]}, "properties": {"site_id": 14, "n_pixels": 11, "area_km2": 2.14, "first_radiance": 0.3, "last_radiance": 4.92, "diff": 4.62, "log_ratio": 1.518, "slope": 0.354, "peak_last": 8.12, "total_gain": 50.8, "type": "emergence"}}, {"type": "Feature", "geometry": {"type": "Point", "coordinates": [87.30208, 24.98021]}, "properties": {"site_id": 15, "n_pixels": 4, "area_km2": 0.78, "first_radiance": 0.9, "last_radiance": 3.2, "diff": 2.3, "log_ratio": 0.792, "slope": 0.248, "peak_last": 3.38, "total_gain": 9.2, "type": "emergence"}}, {"type": "Feature", "geometry": {"type": "Point", "coordinates": [87.16667, 24.95]}, "properties": {"site_id": 16, "n_pixels": 4, "area_km2": 0.78, "first_radiance": 0.36, "last_radiance": 3.42, "diff": 3.07, "log_ratio": 1.182, "slope": 0.341, "peak_last": 3.69, "total_gain": 12.3, "type": "emergence"}}, {"type": "Feature", "geometry": {"type": "Point", "coordinates": [87.80532, 24.9331]}, "properties": {"site_id": 17, "n_pixels": 9, "area_km2": 1.76, "first_radiance": 0.07, "last_radiance": 3.76, "diff": 3.69, "log_ratio": 1.496, "slope": 0.367, "peak_last": 5.0, "total_gain": 33.2, "type": "emergence"}}, {"type": "Feature", "geometry": {"type": "Point", "coordinates": [87.225, 24.9]}, "properties": {"site_id": 18, "n_pixels": 4, "area_km2": 0.78, "first_radiance": 0.35, "last_radiance": 3.23, "diff": 2.88, "log_ratio": 1.145, "slope": 0.374, "peak_last": 3.33, "total_gain": 11.5, "type": "emergence"}}, {"type": "Feature", "geometry": {"type": "Point", "coordinates": [87.775, 24.86042]}, "properties": {"site_id": 19, "n_pixels": 6, "area_km2": 1.17, "first_radiance": 2.51, "last_radiance": 8.71, "diff": 6.2, "log_ratio": 1.018, "slope": 0.529, "peak_last": 11.8, "total_gain": 37.2, "type": "growth"}}, {"type": "Feature", "geometry": {"type": "Point", "coordinates": [87.22375, 24.85375]}, "properties": {"site_id": 20, "n_pixels": 10, "area_km2": 1.95, "first_radiance": 0.54, "last_radiance": 3.31, "diff": 2.77, "log_ratio": 1.029, "slope": 0.309, "peak_last": 3.49, "total_gain": 27.7, "type": "emergence"}}, {"type": "Feature", "geometry": {"type": "Point", "coordinates": [87.86125, 24.85375]}, "properties": {"site_id": 21, "n_pixels": 5, "area_km2": 0.98, "first_radiance": 0.89, "last_radiance": 3.37, "diff": 2.48, "log_ratio": 0.836, "slope": 0.271, "peak_last": 3.91, "total_gain": 12.4, "type": "emergence"}}, {"type": "Feature", "geometry": {"type": "Point", "coordinates": [87.72292, 24.84494]}, "properties": {"site_id": 22, "n_pixels": 7, "area_km2": 1.37, "first_radiance": 0.71, "last_radiance": 3.97, "diff": 3.26, "log_ratio": 1.065, "slope": 0.315, "peak_last": 5.12, "total_gain": 22.8, "type": "emergence"}}, {"type": "Feature", "geometry": {"type": "Point", "coordinates": [87.16309, 24.81996]}, "properties": {"site_id": 23, "n_pixels": 165, "area_km2": 32.22, "first_radiance": 1.95, "last_radiance": 11.27, "diff": 9.32, "log_ratio": 1.425, "slope": 1.001, "peak_last": 99.57, "total_gain": 1538.0, "type": "emergence"}}, {"type": "Feature", "geometry": {"type": "Point", "coordinates": [87.23708, 24.82108]}, "properties": {"site_id": 24, "n_pixels": 25, "area_km2": 4.88, "first_radiance": 0.77, "last_radiance": 3.25, "diff": 2.48, "log_ratio": 0.874, "slope": 0.278, "peak_last": 3.64, "total_gain": 61.9, "type": "emergence"}}, {"type": "Feature", "geometry": {"type": "Point", "coordinates": [87.19708, 24.74958]}, "properties": {"site_id": 25, "n_pixels": 5, "area_km2": 0.98, "first_radiance": 0.0, "last_radiance": 4.39, "diff": 4.39, "log_ratio": 1.685, "slope": 0.359, "peak_last": 6.49, "total_gain": 22.0, "type": "emergence"}}, {"type": "Feature", "geometry": {"type": "Point", "coordinates": [87.85023, 24.63819]}, "properties": {"site_id": 26, "n_pixels": 9, "area_km2": 1.76, "first_radiance": 14.12, "last_radiance": 20.78, "diff": 6.66, "log_ratio": 0.365, "slope": 0.701, "peak_last": 24.83, "total_gain": 59.9, "type": "growth"}}, {"type": "Feature", "geometry": {"type": "Point", "coordinates": [85.91667, 24.61667]}, "properties": {"site_id": 27, "n_pixels": 4, "area_km2": 0.78, "first_radiance": 0.0, "last_radiance": 3.52, "diff": 3.52, "log_ratio": 1.509, "slope": 0.373, "peak_last": 3.84, "total_gain": 14.1, "type": "emergence"}}, {"type": "Feature", "geometry": {"type": "Point", "coordinates": [87.07986, 24.59792]}, "properties": {"site_id": 28, "n_pixels": 6, "area_km2": 1.17, "first_radiance": 0.99, "last_radiance": 4.44, "diff": 3.45, "log_ratio": 1.006, "slope": 0.353, "peak_last": 7.53, "total_gain": 20.7, "type": "emergence"}}, {"type": "Feature", "geometry": {"type": "Point", "coordinates": [86.06181, 24.58403]}, "properties": {"site_id": 29, "n_pixels": 3, "area_km2": 0.59, "first_radiance": 0.0, "last_radiance": 3.94, "diff": 3.94, "log_ratio": 1.598, "slope": 0.375, "peak_last": 4.7, "total_gain": 11.8, "type": "emergence"}}, {"type": "Feature", "geometry": {"type": "Point", "coordinates": [87.45454, 24.54689]}, "properties": {"site_id": 30, "n_pixels": 61, "area_km2": 11.94, "first_radiance": 0.99, "last_radiance": 8.49, "diff": 7.5, "log_ratio": 1.562, "slope": 0.663, "peak_last": 20.16, "total_gain": 457.3, "type": "emergence"}}, {"type": "Feature", "geometry": {"type": "Point", "coordinates": [86.84167, 24.55417]}, "properties": {"site_id": 31, "n_pixels": 4, "area_km2": 0.78, "first_radiance": 0.21, "last_radiance": 4.12, "diff": 3.91, "log_ratio": 1.443, "slope": 0.41, "peak_last": 4.93, "total_gain": 15.7, "type": "emergence"}}, {"type": "Feature", "geometry": {"type": "Point", "coordinates": [84.00458, 24.53042]}, "properties": {"site_id": 32, "n_pixels": 5, "area_km2": 0.98, "first_radiance": 5.81, "last_radiance": 13.18, "diff": 7.38, "log_ratio": 0.734, "slope": 0.904, "peak_last": 16.18, "total_gain": 36.9, "type": "growth"}}, {"type": "Feature", "geometry": {"type": "Point", "coordinates": [86.63591, 24.51605]}, "properties": {"site_id": 33, "n_pixels": 17, "area_km2": 3.33, "first_radiance": 9.07, "last_radiance": 18.46, "diff": 9.39, "log_ratio": 0.659, "slope": 0.885, "peak_last": 30.31, "total_gain": 159.6, "type": "growth"}}, {"type": "Feature", "geometry": {"type": "Point", "coordinates": [86.65833, 24.525]}, "properties": {"site_id": 34, "n_pixels": 4, "area_km2": 0.78, "first_radiance": 3.97, "last_radiance": 11.61, "diff": 7.64, "log_ratio": 0.931, "slope": 0.654, "peak_last": 12.14, "total_gain": 30.5, "type": "growth"}}, {"type": "Feature", "geometry": {"type": "Point", "coordinates": [84.2348, 24.47402]}, "properties": {"site_id": 35, "n_pixels": 68, "area_km2": 13.32, "first_radiance": 0.36, "last_radiance": 5.31, "diff": 4.95, "log_ratio": 1.536, "slope": 0.481, "peak_last": 11.49, "total_gain": 336.8, "type": "emergence"}}, {"type": "Feature", "geometry": {"type": "Point", "coordinates": [86.69326, 24.49277]}, "properties": {"site_id": 36, "n_pixels": 17, "area_km2": 3.33, "first_radiance": 33.82, "last_radiance": 43.77, "diff": 9.94, "log_ratio": 0.251, "slope": 0.794, "peak_last": 59.29, "total_gain": 169.0, "type": "growth"}}, {"type": "Feature", "geometry": {"type": "Point", "coordinates": [86.78403, 24.48681]}, "properties": {"site_id": 37, "n_pixels": 3, "area_km2": 0.59, "first_radiance": 1.06, "last_radiance": 5.72, "diff": 4.66, "log_ratio": 1.181, "slope": 0.376, "peak_last": 8.13, "total_gain": 14.0, "type": "emergence"}}, {"type": "Feature", "geometry": {"type": "Point", "coordinates": [84.15579, 24.47153]}, "properties": {"site_id": 38, "n_pixels": 9, "area_km2": 1.76, "first_radiance": 0.0, "last_radiance": 4.39, "diff": 4.39, "log_ratio": 1.685, "slope": 0.431, "peak_last": 6.78, "total_gain": 39.5, "type": "emergence"}}, {"type": "Feature", "geometry": {"type": "Point", "coordinates": [86.24375, 24.47396]}, "properties": {"site_id": 39, "n_pixels": 4, "area_km2": 0.78, "first_radiance": 0.0, "last_radiance": 3.67, "diff": 3.67, "log_ratio": 1.542, "slope": 0.409, "peak_last": 4.42, "total_gain": 14.7, "type": "emergence"}}, {"type": "Feature", "geometry": {"type": "Point", "coordinates": [84.83021, 24.45521]}, "properties": {"site_id": 40, "n_pixels": 8, "area_km2": 1.57, "first_radiance": 0.11, "last_radiance": 3.92, "diff": 3.81, "log_ratio": 1.486, "slope": 0.359, "peak_last": 5.38, "total_gain": 30.4, "type": "emergence"}}, {"type": "Feature", "geometry": {"type": "Point", "coordinates": [86.70625, 24.44256]}, "properties": {"site_id": 41, "n_pixels": 7, "area_km2": 1.37, "first_radiance": 1.78, "last_radiance": 11.68, "diff": 9.9, "log_ratio": 1.517, "slope": 0.856, "peak_last": 19.57, "total_gain": 69.3, "type": "growth"}}, {"type": "Feature", "geometry": {"type": "Point", "coordinates": [87.52542, 24.44458]}, "properties": {"site_id": 42, "n_pixels": 5, "area_km2": 0.98, "first_radiance": 0.0, "last_radiance": 3.22, "diff": 3.22, "log_ratio": 1.441, "slope": 0.255, "peak_last": 3.6, "total_gain": 16.1, "type": "emergence"}}, {"type": "Feature", "geometry": {"type": "Point", "coordinates": [86.61195, 24.43498]}, "properties": {"site_id": 43, "n_pixels": 19, "area_km2": 3.72, "first_radiance": 0.72, "last_radiance": 11.06, "diff": 10.34, "log_ratio": 1.947, "slope": 1.106, "peak_last": 25.74, "total_gain": 196.5, "type": "emergence"}}, {"type": "Feature", "geometry": {"type": "Point", "coordinates": [85.53042, 24.43542]}, "properties": {"site_id": 44, "n_pixels": 10, "area_km2": 1.96, "first_radiance": 18.16, "last_radiance": 25.83, "diff": 7.67, "log_ratio": 0.336, "slope": 0.981, "peak_last": 37.42, "total_gain": 76.7, "type": "growth"}}, {"type": "Feature", "geometry": {"type": "Point", "coordinates": [85.48958, 24.43056]}, "properties": {"site_id": 45, "n_pixels": 6, "area_km2": 1.18, "first_radiance": 2.82, "last_radiance": 9.69, "diff": 6.88, "log_ratio": 1.03, "slope": 0.667, "peak_last": 11.43, "total_gain": 41.3, "type": "growth"}}, {"type": "Feature", "geometry": {"type": "Point", "coordinates": [86.16852, 24.41181]}, "properties": {"site_id": 46, "n_pixels": 18, "area_km2": 3.53, "first_radiance": 0.57, "last_radiance": 3.64, "diff": 3.07, "log_ratio": 1.082, "slope": 0.303, "peak_last": 5.07, "total_gain": 55.2, "type": "emergence"}}, {"type": "Feature", "geometry": {"type": "Point", "coordinates": [86.92167, 24.42375]}, "properties": {"site_id": 47, "n_pixels": 10, "area_km2": 1.96, "first_radiance": 0.64, "last_radiance": 4.08, "diff": 3.45, "log_ratio": 1.134, "slope": 0.346, "peak_last": 6.21, "total_gain": 34.5, "type": "emergence"}}, {"type": "Feature", "geometry": {"type": "Point", "coordinates": [85.24271, 24.41146]}, "properties": {"site_id": 48, "n_pixels": 4, "area_km2": 0.78, "first_radiance": 1.14, "last_radiance": 4.76, "diff": 3.61, "log_ratio": 0.988, "slope": 0.377, "peak_last": 7.46, "total_gain": 14.5, "type": "emergence"}}, {"type": "Feature", "geometry": {"type": "Point", "coordinates": [87.08381, 24.39112]}, "properties": {"site_id": 49, "n_pixels": 65, "area_km2": 12.74, "first_radiance": 2.3, "last_radiance": 8.04, "diff": 5.74, "log_ratio": 1.007, "slope": 0.553, "peak_last": 28.87, "total_gain": 373.0, "type": "emergence"}}, {"type": "Feature", "geometry": {"type": "Point", "coordinates": [84.19443, 24.37091]}, "properties": {"site_id": 50, "n_pixels": 116, "area_km2": 22.73, "first_radiance": 0.51, "last_radiance": 6.09, "diff": 5.58, "log_ratio": 1.546, "slope": 0.467, "peak_last": 18.38, "total_gain": 647.1, "type": "emergence"}}, {"type": "Feature", "geometry": {"type": "Point", "coordinates": [86.15833, 24.38125]}, "properties": {"site_id": 51, "n_pixels": 4, "area_km2": 0.78, "first_radiance": 0.8, "last_radiance": 3.52, "diff": 2.72, "log_ratio": 0.921, "slope": 0.318, "peak_last": 3.82, "total_gain": 10.9, "type": "emergence"}}, {"type": "Feature", "geometry": {"type": "Point", "coordinates": [86.89236, 24.38403]}, "properties": {"site_id": 52, "n_pixels": 3, "area_km2": 0.59, "first_radiance": 0.6, "last_radiance": 3.34, "diff": 2.74, "log_ratio": 1.001, "slope": 0.277, "peak_last": 3.73, "total_gain": 8.2, "type": "emergence"}}, {"type": "Feature", "geometry": {"type": "Point", "coordinates": [86.90089, 24.35863]}, "properties": {"site_id": 53, "n_pixels": 7, "area_km2": 1.37, "first_radiance": 0.64, "last_radiance": 3.78, "diff": 3.13, "log_ratio": 1.067, "slope": 0.345, "peak_last": 5.14, "total_gain": 21.9, "type": "emergence"}}, {"type": "Feature", "geometry": {"type": "Point", "coordinates": [86.82042, 24.35292]}, "properties": {"site_id": 54, "n_pixels": 5, "area_km2": 0.98, "first_radiance": 0.9, "last_radiance": 3.2, "diff": 2.3, "log_ratio": 0.794, "slope": 0.225, "peak_last": 3.47, "total_gain": 11.5, "type": "emergence"}}, {"type": "Feature", "geometry": {"type": "Point", "coordinates": [84.28403, 24.35069]}, "properties": {"site_id": 55, "n_pixels": 3, "area_km2": 0.59, "first_radiance": 0.0, "last_radiance": 3.48, "diff": 3.48, "log_ratio": 1.499, "slope": 0.279, "peak_last": 4.18, "total_gain": 10.4, "type": "emergence"}}, {"type": "Feature", "geometry": {"type": "Point", "coordinates": [85.70069, 24.34931]}, "properties": {"site_id": 56, "n_pixels": 3, "area_km2": 0.59, "first_radiance": 0.65, "last_radiance": 3.22, "diff": 2.57, "log_ratio": 0.941, "slope": 0.304, "peak_last": 3.31, "total_gain": 7.7, "type": "emergence"}}, {"type": "Feature", "geometry": {"type": "Point", "coordinates": [86.80486, 24.34375]}, "properties": {"site_id": 57, "n_pixels": 3, "area_km2": 0.59, "first_radiance": 0.8, "last_radiance": 3.05, "diff": 2.26, "log_ratio": 0.814, "slope": 0.233, "peak_last": 3.1, "total_gain": 6.8, "type": "emergence"}}, {"type": "Feature", "geometry": {"type": "Point", "coordinates": [85.66042, 24.34042]}, "properties": {"site_id": 58, "n_pixels": 5, "area_km2": 0.98, "first_radiance": 0.75, "last_radiance": 3.66, "diff": 2.91, "log_ratio": 0.978, "slope": 0.231, "peak_last": 3.86, "total_gain": 14.5, "type": "emergence"}}, {"type": "Feature", "geometry": {"type": "Point", "coordinates": [85.71736, 24.33264]}, "properties": {"site_id": 59, "n_pixels": 12, "area_km2": 2.35, "first_radiance": 0.57, "last_radiance": 3.68, "diff": 3.11, "log_ratio": 1.093, "slope": 0.348, "peak_last": 4.69, "total_gain": 37.3, "type": "emergence"}}, {"type": "Feature", "geometry": {"type": "Point", "coordinates": [85.51597, 24.33403]}, "properties": {"site_id": 60, "n_pixels": 3, "area_km2": 0.59, "first_radiance": 5.42, "last_radiance": 11.01, "diff": 5.59, "log_ratio": 0.627, "slope": 0.505, "peak_last": 14.16, "total_gain": 16.8, "type": "growth"}}, {"type": "Feature", "geometry": {"type": "Point", "coordinates": [83.8175, 24.32417]}, "properties": {"site_id": 61, "n_pixels": 10, "area_km2": 1.96, "first_radiance": 0.3, "last_radiance": 4.52, "diff": 4.22, "log_ratio": 1.448, "slope": 0.496, "peak_last": 6.75, "total_gain": 42.2, "type": "emergence"}}, {"type": "Feature", "geometry": {"type": "Point", "coordinates": [85.39097, 24.32847]}, "properties": {"site_id": 62, "n_pixels": 3, "area_km2": 0.59, "first_radiance": 1.16, "last_radiance": 6.55, "diff": 5.39, "log_ratio": 1.252, "slope": 0.584, "peak_last": 9.22, "total_gain": 16.2, "type": "growth"}}, {"type": "Feature", "geometry": {"type": "Point", "coordinates": [85.43479, 24.30542]}, "properties": {"site_id": 63, "n_pixels": 20, "area_km2": 3.92, "first_radiance": 3.93, "last_radiance": 13.13, "diff": 9.21, "log_ratio": 1.054, "slope": 0.904, "peak_last": 25.43, "total_gain": 184.1, "type": "growth"}}, {"type": "Feature", "geometry": {"type": "Point", "coordinates": [85.74375, 24.31042]}, "properties": {"site_id": 64, "n_pixels": 7, "area_km2": 1.37, "first_radiance": 0.69, "last_radiance": 3.43, "diff": 2.75, "log_ratio": 0.967, "slope": 0.301, "peak_last": 3.67, "total_gain": 19.2, "type": "emergence"}}, {"type": "Feature", "geometry": {"type": "Point", "coordinates": [85.41528, 24.30208]}, "properties": {"site_id": 65, "n_pixels": 6, "area_km2": 1.18, "first_radiance": 8.11, "last_radiance": 16.55, "diff": 8.44, "log_ratio": 0.656, "slope": 0.941, "peak_last": 21.92, "total_gain": 50.7, "type": "growth"}}, {"type": "Feature", "geometry": {"type": "Point", "coordinates": [87.25107, 24.27404]}, "properties": {"site_id": 66, "n_pixels": 37, "area_km2": 7.26, "first_radiance": 11.4, "last_radiance": 19.11, "diff": 7.72, "log_ratio": 0.484, "slope": 0.833, "peak_last": 34.54, "total_gain": 285.6, "type": "growth"}}, {"type": "Feature", "geometry": {"type": "Point", "coordinates": [87.28433, 24.27708]}, "properties": {"site_id": 67, "n_pixels": 23, "area_km2": 4.51, "first_radiance": 0.85, "last_radiance": 6.32, "diff": 5.47, "log_ratio": 1.375, "slope": 0.619, "peak_last": 19.45, "total_gain": 125.8, "type": "emergence"}}, {"type": "Feature", "geometry": {"type": "Point", "coordinates": [83.51911, 24.28179]}, "properties": {"site_id": 68, "n_pixels": 23, "area_km2": 4.51, "first_radiance": 0.9, "last_radiance": 4.91, "diff": 4.01, "log_ratio": 1.135, "slope": 0.357, "peak_last": 9.54, "total_gain": 92.3, "type": "emergence"}}, {"type": "Feature", "geometry": {"type": "Point", "coordinates": [85.35949, 24.2831]}, "properties": {"site_id": 69, "n_pixels": 9, "area_km2": 1.76, "first_radiance": 0.94, "last_radiance": 7.45, "diff": 6.51, "log_ratio": 1.471, "slope": 0.682, "peak_last": 14.56, "total_gain": 58.6, "type": "emergence"}}, {"type": "Feature", "geometry": {"type": "Point", "coordinates": [86.37431, 24.28403]}, "properties": {"site_id": 70, "n_pixels": 3, "area_km2": 0.59, "first_radiance": 0.78, "last_radiance": 4.41, "diff": 3.62, "log_ratio": 1.108, "slope": 0.307, "peak_last": 5.01, "total_gain": 10.9, "type": "emergence"}}, {"type": "Feature", "geometry": {"type": "Point", "coordinates": [86.6464, 24.26913]}, "properties": {"site_id": 71, "n_pixels": 11, "area_km2": 2.16, "first_radiance": 10.61, "last_radiance": 18.13, "diff": 7.52, "log_ratio": 0.499, "slope": 0.874, "peak_last": 24.3, "total_gain": 82.7, "type": "growth"}}, {"type": "Feature", "geometry": {"type": "Point", "coordinates": [83.94542, 24.24792]}, "properties": {"site_id": 72, "n_pixels": 5, "area_km2": 0.98, "first_radiance": 2.64, "last_radiance": 9.19, "diff": 6.55, "log_ratio": 1.03, "slope": 0.554, "peak_last": 13.84, "total_gain": 32.8, "type": "growth"}}, {"type": "Feature", "geometry": {"type": "Point", "coordinates": [87.28899, 24.24851]}, "properties": {"site_id": 73, "n_pixels": 7, "area_km2": 1.37, "first_radiance": 0.66, "last_radiance": 4.19, "diff": 3.53, "log_ratio": 1.14, "slope": 0.314, "peak_last": 5.76, "total_gain": 24.7, "type": "emergence"}}, {"type": "Feature", "geometry": {"type": "Point", "coordinates": [86.69792, 24.24097]}, "properties": {"site_id": 74, "n_pixels": 3, "area_km2": 0.59, "first_radiance": 0.89, "last_radiance": 3.62, "diff": 2.74, "log_ratio": 0.895, "slope": 0.26, "peak_last": 3.88, "total_gain": 8.2, "type": "emergence"}}, {"type": "Feature", "geometry": {"type": "Point", "coordinates": [87.02014, 24.23958]}, "properties": {"site_id": 75, "n_pixels": 3, "area_km2": 0.59, "first_radiance": 0.89, "last_radiance": 3.92, "diff": 3.03, "log_ratio": 0.956, "slope": 0.24, "peak_last": 4.58, "total_gain": 9.1, "type": "emergence"}}, {"type": "Feature", "geometry": {"type": "Point", "coordinates": [83.60486, 24.23819]}, "properties": {"site_id": 76, "n_pixels": 3, "area_km2": 0.59, "first_radiance": 0.57, "last_radiance": 3.53, "diff": 2.96, "log_ratio": 1.061, "slope": 0.297, "peak_last": 4.07, "total_gain": 8.9, "type": "emergence"}}, {"type": "Feature", "geometry": {"type": "Point", "coordinates": [86.65694, 24.23472]}, "properties": {"site_id": 77, "n_pixels": 6, "area_km2": 1.18, "first_radiance": 0.61, "last_radiance": 3.82, "diff": 3.21, "log_ratio": 1.097, "slope": 0.469, "peak_last": 5.63, "total_gain": 19.3, "type": "emergence"}}, {"type": "Feature", "geometry": {"type": "Point", "coordinates": [87.26625, 24.23042]}, "properties": {"site_id": 78, "n_pixels": 5, "area_km2": 0.98, "first_radiance": 0.92, "last_radiance": 4.94, "diff": 4.02, "log_ratio": 1.13, "slope": 0.336, "peak_last": 7.9, "total_gain": 20.1, "type": "emergence"}}, {"type": "Feature", "geometry": {"type": "Point", "coordinates": [83.88375, 24.22375]}, "properties": {"site_id": 79, "n_pixels": 10, "area_km2": 1.96, "first_radiance": 21.03, "last_radiance": 30.93, "diff": 9.89, "log_ratio": 0.371, "slope": 1.121, "peak_last": 56.52, "total_gain": 98.9, "type": "growth"}}, {"type": "Feature", "geometry": {"type": "Point", "coordinates": [86.80104, 24.22708]}, "properties": {"site_id": 80, "n_pixels": 4, "area_km2": 0.78, "first_radiance": 0.85, "last_radiance": 3.33, "diff": 2.48, "log_ratio": 0.851, "slope": 0.282, "peak_last": 3.81, "total_gain": 9.9, "type": "emergence"}}, {"type": "Feature", "geometry": {"type": "Point", "coordinates": [85.39931, 24.21736]}, "properties": {"site_id": 81, "n_pixels": 3, "area_km2": 0.59, "first_radiance": 0.78, "last_radiance": 4.41, "diff": 3.62, "log_ratio": 1.109, "slope": 0.356, "peak_last": 5.62, "total_gain": 10.9, "type": "emergence"}}, {"type": "Feature", "geometry": {"type": "Point", "coordinates": [84.88681, 24.20764]}, "properties": {"site_id": 82, "n_pixels": 3, "area_km2": 0.59, "first_radiance": 3.59, "last_radiance": 9.06, "diff": 5.47, "log_ratio": 0.785, "slope": 0.582, "peak_last": 11.03, "total_gain": 16.4, "type": "growth"}}, {"type": "Feature", "geometry": {"type": "Point", "coordinates": [84.93542, 24.20833]}, "properties": {"site_id": 83, "n_pixels": 6, "area_km2": 1.18, "first_radiance": 0.0, "last_radiance": 4.37, "diff": 4.37, "log_ratio": 1.68, "slope": 0.46, "peak_last": 5.6, "total_gain": 26.2, "type": "emergence"}}, {"type": "Feature", "geometry": {"type": "Point", "coordinates": [86.03264, 24.20764]}, "properties": {"site_id": 84, "n_pixels": 3, "area_km2": 0.59, "first_radiance": 0.0, "last_radiance": 3.85, "diff": 3.85, "log_ratio": 1.58, "slope": 0.384, "peak_last": 4.06, "total_gain": 11.6, "type": "emergence"}}, {"type": "Feature", "geometry": {"type": "Point", "coordinates": [83.62014, 24.20486]}, "properties": {"site_id": 85, "n_pixels": 3, "area_km2": 0.59, "first_radiance": 0.0, "last_radiance": 4.92, "diff": 4.92, "log_ratio": 1.778, "slope": 0.556, "peak_last": 5.94, "total_gain": 14.8, "type": "emergence"}}, {"type": "Feature", "geometry": {"type": "Point", "coordinates": [85.38542, 24.20089]}, "properties": {"site_id": 86, "n_pixels": 7, "area_km2": 1.37, "first_radiance": 2.59, "last_radiance": 10.38, "diff": 7.79, "log_ratio": 1.153, "slope": 0.817, "peak_last": 16.08, "total_gain": 54.5, "type": "growth"}}, {"type": "Feature", "geometry": {"type": "Point", "coordinates": [83.96042, 24.20208]}, "properties": {"site_id": 87, "n_pixels": 3, "area_km2": 0.59, "first_radiance": 0.81, "last_radiance": 3.66, "diff": 2.86, "log_ratio": 0.949, "slope": 0.276, "peak_last": 4.03, "total_gain": 8.6, "type": "emergence"}}, {"type": "Feature", "geometry": {"type": "Point", "coordinates": [86.30677, 24.19792]}, "properties": {"site_id": 88, "n_pixels": 8, "area_km2": 1.57, "first_radiance": 12.95, "last_radiance": 19.79, "diff": 6.84, "log_ratio": 0.399, "slope": 0.552, "peak_last": 28.82, "total_gain": 54.8, "type": "growth"}}, {"type": "Feature", "geometry": {"type": "Point", "coordinates": [83.71042, 24.19236]}, "properties": {"site_id": 89, "n_pixels": 9, "area_km2": 1.77, "first_radiance": 0.52, "last_radiance": 3.6, "diff": 3.08, "log_ratio": 1.107, "slope": 0.329, "peak_last": 4.24, "total_gain": 27.7, "type": "emergence"}}, {"type": "Feature", "geometry": {"type": "Point", "coordinates": [83.89137, 24.18393]}, "properties": {"site_id": 90, "n_pixels": 14, "area_km2": 2.75, "first_radiance": 0.67, "last_radiance": 4.29, "diff": 3.63, "log_ratio": 1.156, "slope": 0.352, "peak_last": 7.34, "total_gain": 50.8, "type": "emergence"}}, {"type": "Feature", "geometry": {"type": "Point", "coordinates": [84.87847, 24.18472]}, "properties": {"site_id": 91, "n_pixels": 6, "area_km2": 1.18, "first_radiance": 0.46, "last_radiance": 4.49, "diff": 4.04, "log_ratio": 1.328, "slope": 0.35, "peak_last": 7.0, "total_gain": 24.2, "type": "emergence"}}, {"type": "Feature", "geometry": {"type": "Point", "coordinates": [84.05382, 24.17882]}, "properties": {"site_id": 92, "n_pixels": 12, "area_km2": 2.36, "first_radiance": 0.82, "last_radiance": 5.97, "diff": 5.15, "log_ratio": 1.34, "slope": 0.419, "peak_last": 14.73, "total_gain": 61.8, "type": "emergence"}}, {"type": "Feature", "geometry": {"type": "Point", "coordinates": [83.72639, 24.17778]}, "properties": {"site_id": 93, "n_pixels": 6, "area_km2": 1.18, "first_radiance": 0.17, "last_radiance": 5.1, "diff": 4.93, "log_ratio": 1.648, "slope": 0.396, "peak_last": 8.54, "total_gain": 29.6, "type": "emergence"}}, {"type": "Feature", "geometry": {"type": "Point", "coordinates": [83.80428, 24.16089]}, "properties": {"site_id": 94, "n_pixels": 53, "area_km2": 10.4, "first_radiance": 5.23, "last_radiance": 11.55, "diff": 6.32, "log_ratio": 0.7, "slope": 0.602, "peak_last": 25.94, "total_gain": 335.0, "type": "growth"}}, {"type": "Feature", "geometry": {"type": "Point", "coordinates": [83.78958, 24.17542]}, "properties": {"site_id": 95, "n_pixels": 5, "area_km2": 0.98, "first_radiance": 0.74, "last_radiance": 3.21, "diff": 2.47, "log_ratio": 0.883, "slope": 0.226, "peak_last": 3.36, "total_gain": 12.3, "type": "emergence"}}, {"type": "Feature", "geometry": {"type": "Point", "coordinates": [86.82431, 24.17292]}, "properties": {"site_id": 96, "n_pixels": 3, "area_km2": 0.59, "first_radiance": 0.78, "last_radiance": 3.1, "diff": 2.32, "log_ratio": 0.834, "slope": 0.24, "peak_last": 3.21, "total_gain": 7.0, "type": "emergence"}}, {"type": "Feature", "geometry": {"type": "Point", "coordinates": [85.37917, 24.16875]}, "properties": {"site_id": 97, "n_pixels": 8, "area_km2": 1.57, "first_radiance": 1.42, "last_radiance": 5.96, "diff": 4.54, "log_ratio": 1.058, "slope": 0.524, "peak_last": 10.34, "total_gain": 36.3, "type": "growth"}}, {"type": "Feature", "geometry": {"type": "Point", "coordinates": [86.34583, 24.16042]}, "properties": {"site_id": 98, "n_pixels": 4, "area_km2": 0.79, "first_radiance": 11.86, "last_radiance": 18.5, "diff": 6.64, "log_ratio": 0.416, "slope": 0.601, "peak_last": 20.99, "total_gain": 26.6, "type": "growth"}}, {"type": "Feature", "geometry": {"type": "Point", "coordinates": [83.82936, 24.14905]}, "properties": {"site_id": 99, "n_pixels": 11, "area_km2": 2.16, "first_radiance": 0.76, "last_radiance": 3.63, "diff": 2.87, "log_ratio": 0.967, "slope": 0.263, "peak_last": 4.78, "total_gain": 31.6, "type": "emergence"}}, {"type": "Feature", "geometry": {"type": "Point", "coordinates": [84.06597, 24.12708]}, "properties": {"site_id": 100, "n_pixels": 3, "area_km2": 0.59, "first_radiance": 0.91, "last_radiance": 3.62, "diff": 2.71, "log_ratio": 0.884, "slope": 0.263, "peak_last": 3.85, "total_gain": 8.1, "type": "emergence"}}, {"type": "Feature", "geometry": {"type": "Point", "coordinates": [86.35875, 24.1225]}, "properties": {"site_id": 101, "n_pixels": 10, "area_km2": 1.96, "first_radiance": 8.3, "last_radiance": 16.58, "diff": 8.28, "log_ratio": 0.637, "slope": 0.758, "peak_last": 25.88, "total_gain": 82.8, "type": "growth"}}, {"type": "Feature", "geometry": {"type": "Point", "coordinates": [85.06339, 24.11458]}, "properties": {"site_id": 102, "n_pixels": 7, "area_km2": 1.37, "first_radiance": 0.0, "last_radiance": 3.71, "diff": 3.71, "log_ratio": 1.55, "slope": 0.413, "peak_last": 4.91, "total_gain": 26.0, "type": "emergence"}}, {"type": "Feature", "geometry": {"type": "Point", "coordinates": [85.39062, 24.11042]}, "properties": {"site_id": 103, "n_pixels": 4, "area_km2": 0.79, "first_radiance": 1.42, "last_radiance": 5.58, "diff": 4.16, "log_ratio": 1.0, "slope": 0.492, "peak_last": 8.22, "total_gain": 16.6, "type": "growth"}}, {"type": "Feature", "geometry": {"type": "Point", "coordinates": [85.39042, 24.08167]}, "properties": {"site_id": 104, "n_pixels": 20, "area_km2": 3.93, "first_radiance": 2.9, "last_radiance": 11.27, "diff": 8.37, "log_ratio": 1.146, "slope": 0.954, "peak_last": 17.73, "total_gain": 167.4, "type": "growth"}}, {"type": "Feature", "geometry": {"type": "Point", "coordinates": [85.82354, 24.07271]}, "properties": {"site_id": 105, "n_pixels": 20, "area_km2": 3.93, "first_radiance": 1.52, "last_radiance": 8.1, "diff": 6.58, "log_ratio": 1.283, "slope": 0.575, "peak_last": 12.48, "total_gain": 131.5, "type": "growth"}}, {"type": "Feature", "geometry": {"type": "Point", "coordinates": [85.86683, 24.06651]}, "properties": {"site_id": 106, "n_pixels": 13, "area_km2": 2.55, "first_radiance": 2.23, "last_radiance": 7.97, "diff": 5.74, "log_ratio": 1.022, "slope": 0.554, "peak_last": 10.54, "total_gain": 74.6, "type": "growth"}}, {"type": "Feature", "geometry": {"type": "Point", "coordinates": [84.09002, 24.04079]}, "properties": {"site_id": 107, "n_pixels": 76, "area_km2": 14.93, "first_radiance": 7.31, "last_radiance": 14.68, "diff": 7.37, "log_ratio": 0.635, "slope": 0.739, "peak_last": 40.06, "total_gain": 560.2, "type": "growth"}}, {"type": "Feature", "geometry": {"type": "Point", "coordinates": [85.89896, 24.05521]}, "properties": {"site_id": 108, "n_pixels": 4, "area_km2": 0.79, "first_radiance": 0.89, "last_radiance": 4.2, "diff": 3.31, "log_ratio": 1.011, "slope": 0.336, "peak_last": 6.21, "total_gain": 13.2, "type": "emergence"}}, {"type": "Feature", "geometry": {"type": "Point", "coordinates": [85.38646, 24.04479]}, "properties": {"site_id": 109, "n_pixels": 16, "area_km2": 3.14, "first_radiance": 2.59, "last_radiance": 9.16, "diff": 6.58, "log_ratio": 1.042, "slope": 0.816, "peak_last": 16.34, "total_gain": 105.2, "type": "growth"}}, {"type": "Feature", "geometry": {"type": "Point", "coordinates": [87.29292, 24.04958]}, "properties": {"site_id": 110, "n_pixels": 5, "area_km2": 0.98, "first_radiance": 0.05, "last_radiance": 4.42, "diff": 4.37, "log_ratio": 1.641, "slope": 0.327, "peak_last": 5.36, "total_gain": 21.9, "type": "emergence"}}, {"type": "Feature", "geometry": {"type": "Point", "coordinates": [85.61736, 24.02014]}, "properties": {"site_id": 111, "n_pixels": 3, "area_km2": 0.59, "first_radiance": 1.21, "last_radiance": 6.17, "diff": 4.96, "log_ratio": 1.176, "slope": 0.404, "peak_last": 10.31, "total_gain": 14.9, "type": "emergence"}}, {"type": "Feature", "geometry": {"type": "Point", "coordinates": [84.12361, 24.01319]}, "properties": {"site_id": 112, "n_pixels": 6, "area_km2": 1.18, "first_radiance": 0.71, "last_radiance": 3.43, "diff": 2.72, "log_ratio": 0.951, "slope": 0.275, "peak_last": 3.78, "total_gain": 16.3, "type": "emergence"}}, {"type": "Feature", "geometry": {"type": "Point", "coordinates": [85.37014, 24.01389]}, "properties": {"site_id": 113, "n_pixels": 6, "area_km2": 1.18, "first_radiance": 11.32, "last_radiance": 18.37, "diff": 7.05, "log_ratio": 0.452, "slope": 0.695, "peak_last": 19.84, "total_gain": 42.3, "type": "growth"}}, {"type": "Feature", "geometry": {"type": "Point", "coordinates": [85.38792, 24.00958]}, "properties": {"site_id": 114, "n_pixels": 5, "area_km2": 0.98, "first_radiance": 6.69, "last_radiance": 13.08, "diff": 6.4, "log_ratio": 0.606, "slope": 0.699, "peak_last": 14.74, "total_gain": 32.0, "type": "growth"}}, {"type": "Feature", "geometry": {"type": "Point", "coordinates": [85.99499, 24.00186]}, "properties": {"site_id": 115, "n_pixels": 37, "area_km2": 7.27, "first_radiance": 1.85, "last_radiance": 9.52, "diff": 7.67, "log_ratio": 1.305, "slope": 0.766, "peak_last": 18.59, "total_gain": 283.7, "type": "growth"}}, {"type": "Feature", "geometry": {"type": "Point", "coordinates": [83.79062, 23.99375]}, "properties": {"site_id": 116, "n_pixels": 4, "area_km2": 0.79, "first_radiance": 0.88, "last_radiance": 3.37, "diff": 2.49, "log_ratio": 0.845, "slope": 0.289, "peak_last": 3.7, "total_gain": 10.0, "type": "emergence"}}, {"type": "Feature", "geometry": {"type": "Point", "coordinates": [85.33798, 23.98894]}, "properties": {"site_id": 117, "n_pixels": 13, "area_km2": 2.56, "first_radiance": 8.81, "last_radiance": 18.3, "diff": 9.49, "log_ratio": 0.677, "slope": 0.878, "peak_last": 26.14, "total_gain": 123.4, "type": "growth"}}, {"type": "Feature", "geometry": {"type": "Point", "coordinates": [84.10708, 23.99208]}, "properties": {"site_id": 118, "n_pixels": 5, "area_km2": 0.98, "first_radiance": 0.88, "last_radiance": 3.49, "diff": 2.61, "log_ratio": 0.872, "slope": 0.256, "peak_last": 3.82, "total_gain": 13.1, "type": "emergence"}}, {"type": "Feature", "geometry": {"type": "Point", "coordinates": [86.82917, 23.99167]}, "properties": {"site_id": 119, "n_pixels": 4, "area_km2": 0.79, "first_radiance": 0.76, "last_radiance": 4.27, "diff": 3.51, "log_ratio": 1.099, "slope": 0.338, "peak_last": 5.08, "total_gain": 14.1, "type": "emergence"}}, {"type": "Feature", "geometry": {"type": "Point", "coordinates": [84.22173, 23.97708]}, "properties": {"site_id": 120, "n_pixels": 7, "area_km2": 1.38, "first_radiance": 0.04, "last_radiance": 5.51, "diff": 5.47, "log_ratio": 1.834, "slope": 0.716, "peak_last": 10.43, "total_gain": 38.3, "type": "emergence"}}, {"type": "Feature", "geometry": {"type": "Point", "coordinates": [85.38472, 23.97986]}, "properties": {"site_id": 121, "n_pixels": 6, "area_km2": 1.18, "first_radiance": 8.49, "last_radiance": 15.63, "diff": 7.14, "log_ratio": 0.561, "slope": 0.725, "peak_last": 21.05, "total_gain": 42.8, "type": "growth"}}, {"type": "Feature", "geometry": {"type": "Point", "coordinates": [85.22578, 23.90153]}, "properties": {"site_id": 122, "n_pixels": 345, "area_km2": 67.86, "first_radiance": 0.36, "last_radiance": 8.44, "diff": 8.08, "log_ratio": 1.939, "slope": 0.852, "peak_last": 40.79, "total_gain": 2787.2, "type": "emergence"}}, {"type": "Feature", "geometry": {"type": "Point", "coordinates": [85.35625, 23.96806]}, "properties": {"site_id": 123, "n_pixels": 6, "area_km2": 1.18, "first_radiance": 5.47, "last_radiance": 11.55, "diff": 6.08, "log_ratio": 0.663, "slope": 0.572, "peak_last": 15.42, "total_gain": 36.5, "type": "growth"}}, {"type": "Feature", "geometry": {"type": "Point", "coordinates": [85.37431, 23.96736]}, "properties": {"site_id": 124, "n_pixels": 3, "area_km2": 0.59, "first_radiance": 6.26, "last_radiance": 11.58, "diff": 5.32, "log_ratio": 0.55, "slope": 0.591, "peak_last": 12.12, "total_gain": 16.0, "type": "growth"}}, {"type": "Feature", "geometry": {"type": "Point", "coordinates": [86.08485, 23.94962]}, "properties": {"site_id": 125, "n_pixels": 22, "area_km2": 4.33, "first_radiance": 1.5, "last_radiance": 8.8, "diff": 7.3, "log_ratio": 1.366, "slope": 0.661, "peak_last": 14.56, "total_gain": 160.7, "type": "growth"}}, {"type": "Feature", "geometry": {"type": "Point", "coordinates": [85.34256, 23.92708]}, "properties": {"site_id": 126, "n_pixels": 7, "area_km2": 1.38, "first_radiance": 0.91, "last_radiance": 5.46, "diff": 4.55, "log_ratio": 1.217, "slope": 0.388, "peak_last": 8.9, "total_gain": 31.8, "type": "emergence"}}, {"type": "Feature", "geometry": {"type": "Point", "coordinates": [86.12167, 23.92792]}, "properties": {"site_id": 127, "n_pixels": 10, "area_km2": 1.97, "first_radiance": 1.17, "last_radiance": 8.47, "diff": 7.3, "log_ratio": 1.473, "slope": 0.619, "peak_last": 12.33, "total_gain": 73.0, "type": "growth"}}, {"type": "Feature", "geometry": {"type": "Point", "coordinates": [84.97208, 23.91792]}, "properties": {"site_id": 128, "n_pixels": 5, "area_km2": 0.98, "first_radiance": 0.0, "last_radiance": 4.05, "diff": 4.05, "log_ratio": 1.62, "slope": 0.444, "peak_last": 5.01, "total_gain": 20.3, "type": "emergence"}}, {"type": "Feature", "geometry": {"type": "Point", "coordinates": [86.14824, 23.91811]}, "properties": {"site_id": 129, "n_pixels": 13, "area_km2": 2.56, "first_radiance": 1.17, "last_radiance": 6.85, "diff": 5.68, "log_ratio": 1.287, "slope": 0.515, "peak_last": 14.04, "total_gain": 73.9, "type": "emergence"}}, {"type": "Feature", "geometry": {"type": "Point", "coordinates": [85.08664, 23.89534]}, "properties": {"site_id": 130, "n_pixels": 102, "area_km2": 20.06, "first_radiance": 0.32, "last_radiance": 7.5, "diff": 7.18, "log_ratio": 1.863, "slope": 0.582, "peak_last": 25.26, "total_gain": 732.3, "type": "emergence"}}, {"type": "Feature", "geometry": {"type": "Point", "coordinates": [86.18277, 23.9089]}, "properties": {"site_id": 131, "n_pixels": 11, "area_km2": 2.16, "first_radiance": 2.14, "last_radiance": 11.97, "diff": 9.83, "log_ratio": 1.417, "slope": 0.835, "peak_last": 16.87, "total_gain": 108.1, "type": "growth"}}, {"type": "Feature", "geometry": {"type": "Point", "coordinates": [85.00054, 23.89048]}, "properties": {"site_id": 132, "n_pixels": 70, "area_km2": 13.77, "first_radiance": 0.27, "last_radiance": 7.05, "diff": 6.77, "log_ratio": 1.844, "slope": 0.688, "peak_last": 23.86, "total_gain": 474.1, "type": "emergence"}}, {"type": "Feature", "geometry": {"type": "Point", "coordinates": [86.21319, 23.90023]}, "properties": {"site_id": 133, "n_pixels": 9, "area_km2": 1.77, "first_radiance": 2.82, "last_radiance": 11.33, "diff": 8.51, "log_ratio": 1.172, "slope": 0.813, "peak_last": 14.44, "total_gain": 76.6, "type": "growth"}}, {"type": "Feature", "geometry": {"type": "Point", "coordinates": [84.19167, 23.8875]}, "properties": {"site_id": 134, "n_pixels": 4, "area_km2": 0.79, "first_radiance": 0.8, "last_radiance": 3.5, "diff": 2.7, "log_ratio": 0.917, "slope": 0.26, "peak_last": 3.88, "total_gain": 10.8, "type": "emergence"}}, {"type": "Feature", "geometry": {"type": "Point", "coordinates": [86.27733, 23.88493]}, "properties": {"site_id": 135, "n_pixels": 17, "area_km2": 3.34, "first_radiance": 3.6, "last_radiance": 11.86, "diff": 8.26, "log_ratio": 1.027, "slope": 0.806, "peak_last": 17.65, "total_gain": 140.3, "type": "growth"}}, {"type": "Feature", "geometry": {"type": "Point", "coordinates": [86.32917, 23.87269]}, "properties": {"site_id": 136, "n_pixels": 18, "area_km2": 3.54, "first_radiance": 5.33, "last_radiance": 13.66, "diff": 8.34, "log_ratio": 0.84, "slope": 0.783, "peak_last": 19.21, "total_gain": 150.1, "type": "growth"}}, {"type": "Feature", "geometry": {"type": "Point", "coordinates": [86.38194, 23.86204]}, "properties": {"site_id": 137, "n_pixels": 18, "area_km2": 3.54, "first_radiance": 5.15, "last_radiance": 13.36, "diff": 8.21, "log_ratio": 0.849, "slope": 0.8, "peak_last": 17.52, "total_gain": 147.9, "type": "growth"}}, {"type": "Feature", "geometry": {"type": "Point", "coordinates": [84.90903, 23.86181]}, "properties": {"site_id": 138, "n_pixels": 6, "area_km2": 1.18, "first_radiance": 0.0, "last_radiance": 3.99, "diff": 3.99, "log_ratio": 1.607, "slope": 0.358, "peak_last": 5.16, "total_gain": 23.9, "type": "emergence"}}, {"type": "Feature", "geometry": {"type": "Point", "coordinates": [85.02079, 23.84633]}, "properties": {"site_id": 139, "n_pixels": 100, "area_km2": 19.68, "first_radiance": 0.15, "last_radiance": 12.73, "diff": 12.58, "log_ratio": 2.476, "slope": 1.278, "peak_last": 74.84, "total_gain": 1257.8, "type": "emergence"}}, {"type": "Feature", "geometry": {"type": "Point", "coordinates": [84.95486, 23.85486]}, "properties": {"site_id": 140, "n_pixels": 3, "area_km2": 0.59, "first_radiance": 0.0, "last_radiance": 3.72, "diff": 3.72, "log_ratio": 1.552, "slope": 0.368, "peak_last": 4.74, "total_gain": 11.2, "type": "emergence"}}, {"type": "Feature", "geometry": {"type": "Point", "coordinates": [85.2875, 23.85417]}, "properties": {"site_id": 141, "n_pixels": 4, "area_km2": 0.79, "first_radiance": 0.66, "last_radiance": 3.36, "diff": 2.7, "log_ratio": 0.968, "slope": 0.233, "peak_last": 3.59, "total_gain": 10.8, "type": "emergence"}}, {"type": "Feature", "geometry": {"type": "Point", "coordinates": [86.41458, 23.85417]}, "properties": {"site_id": 142, "n_pixels": 6, "area_km2": 1.18, "first_radiance": 6.61, "last_radiance": 13.9, "diff": 7.3, "log_ratio": 0.672, "slope": 0.69, "peak_last": 17.2, "total_gain": 43.8, "type": "growth"}}, {"type": "Feature", "geometry": {"type": "Point", "coordinates": [84.36792, 23.84958]}, "properties": {"site_id": 143, "n_pixels": 5, "area_km2": 0.98, "first_radiance": 0.38, "last_radiance": 3.88, "diff": 3.5, "log_ratio": 1.261, "slope": 0.284, "peak_last": 5.9, "total_gain": 17.5, "type": "emergence"}}, {"type": "Feature", "geometry": {"type": "Point", "coordinates": [84.86319, 23.84514]}, "properties": {"site_id": 144, "n_pixels": 3, "area_km2": 0.59, "first_radiance": 0.0, "last_radiance": 3.76, "diff": 3.76, "log_ratio": 1.561, "slope": 0.455, "peak_last": 4.2, "total_gain": 11.3, "type": "emergence"}}, {"type": "Feature", "geometry": {"type": "Point", "coordinates": [84.93363, 23.83669]}, "properties": {"site_id": 145, "n_pixels": 49, "area_km2": 9.64, "first_radiance": 0.0, "last_radiance": 5.24, "diff": 5.24, "log_ratio": 1.831, "slope": 0.547, "peak_last": 12.41, "total_gain": 256.7, "type": "emergence"}}, {"type": "Feature", "geometry": {"type": "Point", "coordinates": [86.44375, 23.84792]}, "properties": {"site_id": 146, "n_pixels": 3, "area_km2": 0.59, "first_radiance": 7.49, "last_radiance": 13.89, "diff": 6.4, "log_ratio": 0.562, "slope": 0.6, "peak_last": 14.96, "total_gain": 19.2, "type": "growth"}}, {"type": "Feature", "geometry": {"type": "Point", "coordinates": [86.47173, 23.84613]}, "properties": {"site_id": 147, "n_pixels": 7, "area_km2": 1.38, "first_radiance": 8.27, "last_radiance": 16.32, "diff": 8.05, "log_ratio": 0.625, "slope": 0.844, "peak_last": 22.34, "total_gain": 56.4, "type": "growth"}}, {"type": "Feature", "geometry": {"type": "Point", "coordinates": [85.29792, 23.83958]}, "properties": {"site_id": 148, "n_pixels": 3, "area_km2": 0.59, "first_radiance": 1.06, "last_radiance": 4.43, "diff": 3.37, "log_ratio": 0.968, "slope": 0.325, "peak_last": 6.88, "total_gain": 10.1, "type": "emergence"}}, {"type": "Feature", "geometry": {"type": "Point", "coordinates": [86.44316, 23.81847]}, "properties": {"site_id": 149, "n_pixels": 149, "area_km2": 29.33, "first_radiance": 13.27, "last_radiance": 22.22, "diff": 8.95, "log_ratio": 0.487, "slope": 0.887, "peak_last": 48.03, "total_gain": 1333.8, "type": "growth"}}, {"type": "Feature", "geometry": {"type": "Point", "coordinates": [86.50625, 23.83304]}, "properties": {"site_id": 150, "n_pixels": 14, "area_km2": 2.76, "first_radiance": 8.68, "last_radiance": 15.2, "diff": 6.52, "log_ratio": 0.515, "slope": 0.652, "peak_last": 19.01, "total_gain": 91.3, "type": "growth"}}, {"type": "Feature", "geometry": {"type": "Point", "coordinates": [85.49292, 23.83292]}, "properties": {"site_id": 151, "n_pixels": 5, "area_km2": 0.98, "first_radiance": 5.09, "last_radiance": 10.91, "diff": 5.82, "log_ratio": 0.671, "slope": 0.639, "peak_last": 14.32, "total_gain": 29.1, "type": "growth"}}, {"type": "Feature", "geometry": {"type": "Point", "coordinates": [84.5839, 23.82254]}, "properties": {"site_id": 152, "n_pixels": 11, "area_km2": 2.16, "first_radiance": 0.17, "last_radiance": 3.34, "diff": 3.17, "log_ratio": 1.311, "slope": 0.27, "peak_last": 4.08, "total_gain": 34.9, "type": "emergence"}}, {"type": "Feature", "geometry": {"type": "Point", "coordinates": [84.80417, 23.81823]}, "properties": {"site_id": 153, "n_pixels": 8, "area_km2": 1.57, "first_radiance": 0.48, "last_radiance": 3.98, "diff": 3.5, "log_ratio": 1.213, "slope": 0.378, "peak_last": 4.95, "total_gain": 28.0, "type": "emergence"}}, {"type": "Feature", "geometry": {"type": "Point", "coordinates": [84.84077, 23.80387]}, "properties": {"site_id": 154, "n_pixels": 7, "area_km2": 1.38, "first_radiance": 0.91, "last_radiance": 5.42, "diff": 4.51, "log_ratio": 1.21, "slope": 0.455, "peak_last": 9.28, "total_gain": 31.6, "type": "emergence"}}, {"type": "Feature", "geometry": {"type": "Point", "coordinates": [85.56042, 23.7871]}, "properties": {"site_id": 155, "n_pixels": 94, "area_km2": 18.51, "first_radiance": 14.84, "last_radiance": 30.24, "diff": 15.4, "log_ratio": 0.679, "slope": 1.439, "peak_last": 61.95, "total_gain": 1447.6, "type": "growth"}}, {"type": "Feature", "geometry": {"type": "Point", "coordinates": [85.86458, 23.80312]}, "properties": {"site_id": 156, "n_pixels": 4, "area_km2": 0.79, "first_radiance": 5.61, "last_radiance": 12.69, "diff": 7.08, "log_ratio": 0.728, "slope": 0.73, "peak_last": 14.69, "total_gain": 28.3, "type": "growth"}}, {"type": "Feature", "geometry": {"type": "Point", "coordinates": [86.35069, 23.79514]}, "properties": {"site_id": 157, "n_pixels": 3, "area_km2": 0.59, "first_radiance": 13.97, "last_radiance": 22.38, "diff": 8.41, "log_ratio": 0.446, "slope": 0.979, "peak_last": 26.83, "total_gain": 25.2, "type": "growth"}}, {"type": "Feature", "geometry": {"type": "Point", "coordinates": [85.91845, 23.78393]}, "properties": {"site_id": 158, "n_pixels": 14, "area_km2": 2.76, "first_radiance": 5.71, "last_radiance": 13.24, "diff": 7.53, "log_ratio": 0.752, "slope": 0.775, "peak_last": 16.81, "total_gain": 105.4, "type": "growth"}}, {"type": "Feature", "geometry": {"type": "Point", "coordinates": [86.20764, 23.77875]}, "properties": {"site_id": 159, "n_pixels": 15, "area_km2": 2.95, "first_radiance": 7.58, "last_radiance": 18.59, "diff": 11.01, "log_ratio": 0.826, "slope": 1.246, "peak_last": 29.31, "total_gain": 165.2, "type": "growth"}}, {"type": "Feature", "geometry": {"type": "Point", "coordinates": [86.41458, 23.78333]}, "properties": {"site_id": 160, "n_pixels": 4, "area_km2": 0.79, "first_radiance": 27.53, "last_radiance": 34.86, "diff": 7.33, "log_ratio": 0.229, "slope": 0.735, "peak_last": 36.4, "total_gain": 29.3, "type": "growth"}}, {"type": "Feature", "geometry": {"type": "Point", "coordinates": [85.84167, 23.775]}, "properties": {"site_id": 161, "n_pixels": 20, "area_km2": 3.94, "first_radiance": 1.82, "last_radiance": 28.86, "diff": 27.04, "log_ratio": 2.36, "slope": 2.996, "peak_last": 146.66, "total_gain": 540.8, "type": "growth"}}, {"type": "Feature", "geometry": {"type": "Point", "coordinates": [85.99673, 23.77708]}, "properties": {"site_id": 162, "n_pixels": 7, "area_km2": 1.38, "first_radiance": 9.31, "last_radiance": 20.39, "diff": 11.09, "log_ratio": 0.73, "slope": 0.779, "peak_last": 25.26, "total_gain": 77.6, "type": "growth"}}, {"type": "Feature", "geometry": {"type": "Point", "coordinates": [84.45625, 23.77708]}, "properties": {"site_id": 163, "n_pixels": 3, "area_km2": 0.59, "first_radiance": 0.49, "last_radiance": 3.44, "diff": 2.95, "log_ratio": 1.092, "slope": 0.309, "peak_last": 4.0, "total_gain": 8.9, "type": "emergence"}}, {"type": "Feature", "geometry": {"type": "Point", "coordinates": [86.25255, 23.75671]}, "properties": {"site_id": 164, "n_pixels": 9, "area_km2": 1.77, "first_radiance": 2.5, "last_radiance": 11.58, "diff": 9.08, "log_ratio": 1.279, "slope": 0.71, "peak_last": 12.98, "total_gain": 81.7, "type": "growth"}}, {"type": "Feature", "geometry": {"type": "Point", "coordinates": [86.40042, 23.75875]}, "properties": {"site_id": 165, "n_pixels": 10, "area_km2": 1.97, "first_radiance": 14.94, "last_radiance": 34.25, "diff": 19.31, "log_ratio": 0.794, "slope": 1.683, "peak_last": 55.78, "total_gain": 193.1, "type": "growth"}}, {"type": "Feature", "geometry": {"type": "Point", "coordinates": [86.79444, 23.76181]}, "properties": {"site_id": 166, "n_pixels": 6, "area_km2": 1.18, "first_radiance": 13.24, "last_radiance": 21.64, "diff": 8.4, "log_ratio": 0.464, "slope": 0.708, "peak_last": 28.15, "total_gain": 50.4, "type": "growth"}}, {"type": "Feature", "geometry": {"type": "Point", "coordinates": [84.49914, 23.74522]}, "properties": {"site_id": 167, "n_pixels": 34, "area_km2": 6.7, "first_radiance": 3.72, "last_radiance": 10.46, "diff": 6.73, "log_ratio": 0.886, "slope": 0.632, "peak_last": 24.26, "total_gain": 228.9, "type": "growth"}}, {"type": "Feature", "geometry": {"type": "Point", "coordinates": [85.87014, 23.75347]}, "properties": {"site_id": 168, "n_pixels": 3, "area_km2": 0.59, "first_radiance": 6.42, "last_radiance": 13.15, "diff": 6.73, "log_ratio": 0.646, "slope": 0.618, "peak_last": 14.86, "total_gain": 20.2, "type": "growth"}}, {"type": "Feature", "geometry": {"type": "Point", "coordinates": [86.60708, 23.74542]}, "properties": {"site_id": 169, "n_pixels": 5, "area_km2": 0.98, "first_radiance": 2.17, "last_radiance": 10.45, "diff": 8.27, "log_ratio": 1.283, "slope": 0.832, "peak_last": 13.86, "total_gain": 41.4, "type": "growth"}}, {"type": "Feature", "geometry": {"type": "Point", "coordinates": [85.00875, 23.73958]}, "properties": {"site_id": 170, "n_pixels": 5, "area_km2": 0.98, "first_radiance": 1.73, "last_radiance": 9.17, "diff": 7.44, "log_ratio": 1.315, "slope": 0.809, "peak_last": 12.04, "total_gain": 37.2, "type": "growth"}}, {"type": "Feature", "geometry": {"type": "Point", "coordinates": [85.50089, 23.73244]}, "properties": {"site_id": 171, "n_pixels": 7, "area_km2": 1.38, "first_radiance": 4.75, "last_radiance": 10.84, "diff": 6.08, "log_ratio": 0.721, "slope": 0.602, "peak_last": 13.26, "total_gain": 42.6, "type": "growth"}}, {"type": "Feature", "geometry": {"type": "Point", "coordinates": [86.78819, 23.74236]}, "properties": {"site_id": 172, "n_pixels": 3, "area_km2": 0.59, "first_radiance": 13.5, "last_radiance": 19.27, "diff": 5.77, "log_ratio": 0.335, "slope": 0.586, "peak_last": 22.12, "total_gain": 17.3, "type": "growth"}}, {"type": "Feature", "geometry": {"type": "Point", "coordinates": [84.47917, 23.72847]}, "properties": {"site_id": 173, "n_pixels": 6, "area_km2": 1.18, "first_radiance": 2.39, "last_radiance": 8.29, "diff": 5.9, "log_ratio": 1.008, "slope": 0.683, "peak_last": 11.53, "total_gain": 35.4, "type": "growth"}}, {"type": "Feature", "geometry": {"type": "Point", "coordinates": [85.29065, 23.70946]}, "properties": {"site_id": 174, "n_pixels": 35, "area_km2": 6.89, "first_radiance": 4.85, "last_radiance": 14.1, "diff": 9.25, "log_ratio": 0.949, "slope": 1.039, "peak_last": 26.19, "total_gain": 323.9, "type": "growth"}}, {"type": "Feature", "geometry": {"type": "Point", "coordinates": [85.51994, 23.7247]}, "properties": {"site_id": 175, "n_pixels": 7, "area_km2": 1.38, "first_radiance": 4.62, "last_radiance": 11.77, "diff": 7.15, "log_ratio": 0.82, "slope": 0.651, "peak_last": 14.78, "total_gain": 50.0, "type": "growth"}}, {"type": "Feature", "geometry": {"type": "Point", "coordinates": [86.44167, 23.72083]}, "properties": {"site_id": 176, "n_pixels": 4, "area_km2": 0.79, "first_radiance": 10.08, "last_radiance": 18.83, "diff": 8.76, "log_ratio": 0.582, "slope": 0.695, "peak_last": 21.04, "total_gain": 35.0, "type": "growth"}}, {"type": "Feature", "geometry": {"type": "Point", "coordinates": [86.20292, 23.71]}, "properties": {"site_id": 177, "n_pixels": 10, "area_km2": 1.97, "first_radiance": 1.51, "last_radiance": 7.37, "diff": 5.86, "log_ratio": 1.204, "slope": 0.572, "peak_last": 11.75, "total_gain": 58.6, "type": "growth"}}, {"type": "Feature", "geometry": {"type": "Point", "coordinates": [86.08419, 23.67831]}, "properties": {"site_id": 178, "n_pixels": 85, "area_km2": 16.75, "first_radiance": 27.39, "last_radiance": 42.5, "diff": 15.11, "log_ratio": 0.427, "slope": 1.127, "peak_last": 115.38, "total_gain": 1284.3, "type": "growth"}}, {"type": "Feature", "geometry": {"type": "Point", "coordinates": [85.36125, 23.69542]}, "properties": {"site_id": 179, "n_pixels": 5, "area_km2": 0.99, "first_radiance": 4.51, "last_radiance": 10.54, "diff": 6.03, "log_ratio": 0.738, "slope": 0.661, "peak_last": 11.71, "total_gain": 30.1, "type": "growth"}}, {"type": "Feature", "geometry": {"type": "Point", "coordinates": [86.39323, 23.68229]}, "properties": {"site_id": 180, "n_pixels": 8, "area_km2": 1.58, "first_radiance": 11.22, "last_radiance": 33.64, "diff": 22.41, "log_ratio": 1.042, "slope": 2.191, "peak_last": 56.38, "total_gain": 179.3, "type": "growth"}}, {"type": "Feature", "geometry": {"type": "Point", "coordinates": [86.16621, 23.64557]}, "properties": {"site_id": 181, "n_pixels": 192, "area_km2": 37.84, "first_radiance": 11.5, "last_radiance": 22.21, "diff": 10.7, "log_ratio": 0.619, "slope": 0.964, "peak_last": 42.3, "total_gain": 2055.3, "type": "growth"}}, {"type": "Feature", "geometry": {"type": "Point", "coordinates": [86.25833, 23.67083]}, "properties": {"site_id": 182, "n_pixels": 4, "area_km2": 0.79, "first_radiance": 2.11, "last_radiance": 8.28, "diff": 6.17, "log_ratio": 1.094, "slope": 0.634, "peak_last": 9.71, "total_gain": 24.7, "type": "growth"}}, {"type": "Feature", "geometry": {"type": "Point", "coordinates": [86.49792, 23.65811]}, "properties": {"site_id": 183, "n_pixels": 38, "area_km2": 7.49, "first_radiance": 9.6, "last_radiance": 28.87, "diff": 19.27, "log_ratio": 1.036, "slope": 2.392, "peak_last": 78.04, "total_gain": 732.4, "type": "growth"}}, {"type": "Feature", "geometry": {"type": "Point", "coordinates": [86.23958, 23.66042]}, "properties": {"site_id": 184, "n_pixels": 4, "area_km2": 0.79, "first_radiance": 0.92, "last_radiance": 3.39, "diff": 2.48, "log_ratio": 0.829, "slope": 0.227, "peak_last": 3.7, "total_gain": 9.9, "type": "emergence"}}, {"type": "Feature", "geometry": {"type": "Point", "coordinates": [85.28968, 23.64751]}, "properties": {"site_id": 185, "n_pixels": 41, "area_km2": 8.08, "first_radiance": 7.37, "last_radiance": 25.04, "diff": 17.67, "log_ratio": 1.135, "slope": 2.224, "peak_last": 65.7, "total_gain": 724.6, "type": "growth"}}, {"type": "Feature", "geometry": {"type": "Point", "coordinates": [85.50792, 23.65708]}, "properties": {"site_id": 186, "n_pixels": 5, "area_km2": 0.99, "first_radiance": 13.3, "last_radiance": 24.6, "diff": 11.3, "log_ratio": 0.582, "slope": 0.916, "peak_last": 34.34, "total_gain": 56.5, "type": "growth"}}, {"type": "Feature", "geometry": {"type": "Point", "coordinates": [86.26042, 23.65486]}, "properties": {"site_id": 187, "n_pixels": 3, "area_km2": 0.59, "first_radiance": 0.98, "last_radiance": 3.84, "diff": 2.86, "log_ratio": 0.895, "slope": 0.256, "peak_last": 4.89, "total_gain": 8.6, "type": "emergence"}}, {"type": "Feature", "geometry": {"type": "Point", "coordinates": [85.56542, 23.64958]}, "properties": {"site_id": 188, "n_pixels": 5, "area_km2": 0.99, "first_radiance": 2.84, "last_radiance": 10.96, "diff": 8.11, "log_ratio": 1.135, "slope": 0.912, "peak_last": 13.51, "total_gain": 40.6, "type": "growth"}}, {"type": "Feature", "geometry": {"type": "Point", "coordinates": [85.27361, 23.62778]}, "properties": {"site_id": 189, "n_pixels": 6, "area_km2": 1.18, "first_radiance": 5.66, "last_radiance": 17.21, "diff": 11.54, "log_ratio": 1.005, "slope": 1.217, "peak_last": 21.3, "total_gain": 69.3, "type": "growth"}}, {"type": "Feature", "geometry": {"type": "Point", "coordinates": [85.64917, 23.62417]}, "properties": {"site_id": 190, "n_pixels": 10, "area_km2": 1.97, "first_radiance": 0.94, "last_radiance": 5.26, "diff": 4.33, "log_ratio": 1.173, "slope": 0.366, "peak_last": 9.57, "total_gain": 43.3, "type": "emergence"}}, {"type": "Feature", "geometry": {"type": "Point", "coordinates": [86.28681, 23.62847]}, "properties": {"site_id": 191, "n_pixels": 3, "area_km2": 0.59, "first_radiance": 24.0, "last_radiance": 32.67, "diff": 8.67, "log_ratio": 0.298, "slope": 0.654, "peak_last": 44.16, "total_gain": 26.0, "type": "growth"}}, {"type": "Feature", "geometry": {"type": "Point", "coordinates": [85.68458, 23.62083]}, "properties": {"site_id": 192, "n_pixels": 10, "area_km2": 1.97, "first_radiance": 4.44, "last_radiance": 12.01, "diff": 7.57, "log_ratio": 0.872, "slope": 0.847, "peak_last": 16.65, "total_gain": 75.7, "type": "growth"}}, {"type": "Feature", "geometry": {"type": "Point", "coordinates": [85.57199, 23.61597]}, "properties": {"site_id": 193, "n_pixels": 9, "area_km2": 1.77, "first_radiance": 1.7, "last_radiance": 9.5, "diff": 7.79, "log_ratio": 1.357, "slope": 0.738, "peak_last": 15.52, "total_gain": 70.1, "type": "growth"}}, {"type": "Feature", "geometry": {"type": "Point", "coordinates": [86.07131, 23.60176]}, "properties": {"site_id": 194, "n_pixels": 13, "area_km2": 2.56, "first_radiance": 1.44, "last_radiance": 12.28, "diff": 10.84, "log_ratio": 1.695, "slope": 0.945, "peak_last": 32.4, "total_gain": 140.9, "type": "growth"}}, {"type": "Feature", "geometry": {"type": "Point", "coordinates": [85.17917, 23.5375]}, "properties": {"site_id": 195, "n_pixels": 4, "area_km2": 0.79, "first_radiance": 0.33, "last_radiance": 4.58, "diff": 4.25, "log_ratio": 1.431, "slope": 0.511, "peak_last": 5.59, "total_gain": 17.0, "type": "emergence"}}, {"type": "Feature", "geometry": {"type": "Point", "coordinates": [85.61563, 23.49271]}, "properties": {"site_id": 196, "n_pixels": 8, "area_km2": 1.58, "first_radiance": 0.76, "last_radiance": 6.15, "diff": 5.39, "log_ratio": 1.401, "slope": 0.407, "peak_last": 11.19, "total_gain": 43.1, "type": "emergence"}}, {"type": "Feature", "geometry": {"type": "Point", "coordinates": [85.31042, 23.48792]}, "properties": {"site_id": 197, "n_pixels": 5, "area_km2": 0.99, "first_radiance": 1.34, "last_radiance": 5.37, "diff": 4.04, "log_ratio": 1.003, "slope": 0.385, "peak_last": 9.14, "total_gain": 20.2, "type": "emergence"}}, {"type": "Feature", "geometry": {"type": "Point", "coordinates": [85.42005, 23.48359]}, "properties": {"site_id": 198, "n_pixels": 16, "area_km2": 3.16, "first_radiance": 0.72, "last_radiance": 3.36, "diff": 2.64, "log_ratio": 0.928, "slope": 0.299, "peak_last": 4.0, "total_gain": 42.2, "type": "emergence"}}, {"type": "Feature", "geometry": {"type": "Point", "coordinates": [85.47847, 23.48403]}, "properties": {"site_id": 199, "n_pixels": 3, "area_km2": 0.59, "first_radiance": 8.12, "last_radiance": 14.86, "diff": 6.74, "log_ratio": 0.554, "slope": 0.518, "peak_last": 16.77, "total_gain": 20.2, "type": "growth"}}, {"type": "Feature", "geometry": {"type": "Point", "coordinates": [84.27292, 23.47778]}, "properties": {"site_id": 200, "n_pixels": 6, "area_km2": 1.18, "first_radiance": 0.95, "last_radiance": 5.2, "diff": 4.25, "log_ratio": 1.159, "slope": 0.39, "peak_last": 7.15, "total_gain": 25.5, "type": "emergence"}}, {"type": "Feature", "geometry": {"type": "Point", "coordinates": [85.06042, 23.47188]}, "properties": {"site_id": 201, "n_pixels": 4, "area_km2": 0.79, "first_radiance": 0.65, "last_radiance": 3.85, "diff": 3.19, "log_ratio": 1.075, "slope": 0.308, "peak_last": 5.04, "total_gain": 12.8, "type": "emergence"}}, {"type": "Feature", "geometry": {"type": "Point", "coordinates": [85.24306, 23.46597]}, "properties": {"site_id": 202, "n_pixels": 6, "area_km2": 1.18, "first_radiance": 0.49, "last_radiance": 3.77, "diff": 3.29, "log_ratio": 1.167, "slope": 0.331, "peak_last": 4.93, "total_gain": 19.7, "type": "emergence"}}, {"type": "Feature", "geometry": {"type": "Point", "coordinates": [85.30486, 23.46042]}, "properties": {"site_id": 203, "n_pixels": 9, "area_km2": 1.78, "first_radiance": 1.02, "last_radiance": 5.05, "diff": 4.03, "log_ratio": 1.098, "slope": 0.394, "peak_last": 7.87, "total_gain": 36.3, "type": "emergence"}}, {"type": "Feature", "geometry": {"type": "Point", "coordinates": [85.26083, 23.44438]}, "properties": {"site_id": 204, "n_pixels": 40, "area_km2": 7.9, "first_radiance": 1.28, "last_radiance": 6.53, "diff": 5.25, "log_ratio": 1.196, "slope": 0.482, "peak_last": 16.32, "total_gain": 210.2, "type": "emergence"}}, {"type": "Feature", "geometry": {"type": "Point", "coordinates": [85.36319, 23.45486]}, "properties": {"site_id": 205, "n_pixels": 6, "area_km2": 1.18, "first_radiance": 0.88, "last_radiance": 3.59, "diff": 2.71, "log_ratio": 0.893, "slope": 0.243, "peak_last": 4.2, "total_gain": 16.3, "type": "emergence"}}, {"type": "Feature", "geometry": {"type": "Point", "coordinates": [85.35682, 23.39091]}, "properties": {"site_id": 206, "n_pixels": 211, "area_km2": 41.66, "first_radiance": 13.05, "last_radiance": 22.64, "diff": 9.59, "log_ratio": 0.52, "slope": 0.964, "peak_last": 50.49, "total_gain": 2022.5, "type": "growth"}}, {"type": "Feature", "geometry": {"type": "Point", "coordinates": [85.24875, 23.40925]}, "properties": {"site_id": 207, "n_pixels": 25, "area_km2": 4.94, "first_radiance": 3.04, "last_radiance": 11.48, "diff": 8.44, "log_ratio": 1.128, "slope": 0.753, "peak_last": 21.95, "total_gain": 210.9, "type": "growth"}}, {"type": "Feature", "geometry": {"type": "Point", "coordinates": [85.46771, 23.40625]}, "properties": {"site_id": 208, "n_pixels": 4, "area_km2": 0.79, "first_radiance": 1.51, "last_radiance": 7.76, "diff": 6.25, "log_ratio": 1.249, "slope": 0.515, "peak_last": 9.45, "total_gain": 25.0, "type": "growth"}}, {"type": "Feature", "geometry": {"type": "Point", "coordinates": [85.2838, 23.32949]}, "properties": {"site_id": 209, "n_pixels": 446, "area_km2": 88.11, "first_radiance": 10.01, "last_radiance": 22.52, "diff": 12.51, "log_ratio": 0.759, "slope": 1.28, "peak_last": 81.45, "total_gain": 5580.5, "type": "growth"}}, {"type": "Feature", "geometry": {"type": "Point", "coordinates": [85.4875, 23.375]}, "properties": {"site_id": 210, "n_pixels": 4, "area_km2": 0.79, "first_radiance": 0.73, "last_radiance": 3.59, "diff": 2.86, "log_ratio": 0.976, "slope": 0.248, "peak_last": 3.91, "total_gain": 11.4, "type": "emergence"}}, {"type": "Feature", "geometry": {"type": "Point", "coordinates": [85.32917, 23.34875]}, "properties": {"site_id": 211, "n_pixels": 10, "area_km2": 1.98, "first_radiance": 37.41, "last_radiance": 50.56, "diff": 13.15, "log_ratio": 0.294, "slope": 0.985, "peak_last": 63.37, "total_gain": 131.5, "type": "growth"}}, {"type": "Feature", "geometry": {"type": "Point", "coordinates": [85.21634, 23.32401]}, "properties": {"site_id": 212, "n_pixels": 19, "area_km2": 3.75, "first_radiance": 1.47, "last_radiance": 6.71, "diff": 5.24, "log_ratio": 1.138, "slope": 0.495, "peak_last": 10.2, "total_gain": 99.5, "type": "growth"}}, {"type": "Feature", "geometry": {"type": "Point", "coordinates": [85.23125, 23.33125]}, "properties": {"site_id": 213, "n_pixels": 3, "area_km2": 0.59, "first_radiance": 0.97, "last_radiance": 3.81, "diff": 2.84, "log_ratio": 0.893, "slope": 0.274, "peak_last": 4.04, "total_gain": 8.5, "type": "emergence"}}, {"type": "Feature", "geometry": {"type": "Point", "coordinates": [85.15208, 23.32031]}, "properties": {"site_id": 214, "n_pixels": 8, "area_km2": 1.58, "first_radiance": 0.73, "last_radiance": 5.24, "diff": 4.51, "log_ratio": 1.282, "slope": 0.364, "peak_last": 7.63, "total_gain": 36.1, "type": "emergence"}}, {"type": "Feature", "geometry": {"type": "Point", "coordinates": [85.0599, 23.30573]}, "properties": {"site_id": 215, "n_pixels": 8, "area_km2": 1.58, "first_radiance": 9.44, "last_radiance": 28.22, "diff": 18.78, "log_ratio": 1.029, "slope": 1.114, "peak_last": 55.14, "total_gain": 150.2, "type": "growth"}}, {"type": "Feature", "geometry": {"type": "Point", "coordinates": [85.24583, 23.31042]}, "properties": {"site_id": 216, "n_pixels": 4, "area_km2": 0.79, "first_radiance": 2.0, "last_radiance": 7.75, "diff": 5.75, "log_ratio": 1.07, "slope": 0.538, "peak_last": 8.21, "total_gain": 23.0, "type": "growth"}}, {"type": "Feature", "geometry": {"type": "Point", "coordinates": [85.12917, 23.30417]}, "properties": {"site_id": 217, "n_pixels": 4, "area_km2": 0.79, "first_radiance": 0.27, "last_radiance": 3.75, "diff": 3.48, "log_ratio": 1.323, "slope": 0.3, "peak_last": 4.24, "total_gain": 13.9, "type": "emergence"}}, {"type": "Feature", "geometry": {"type": "Point", "coordinates": [85.15937, 23.30104]}, "properties": {"site_id": 218, "n_pixels": 4, "area_km2": 0.79, "first_radiance": 0.8, "last_radiance": 3.5, "diff": 2.7, "log_ratio": 0.915, "slope": 0.256, "peak_last": 3.84, "total_gain": 10.8, "type": "emergence"}}, {"type": "Feature", "geometry": {"type": "Point", "coordinates": [85.39958, 23.28042]}, "properties": {"site_id": 219, "n_pixels": 5, "area_km2": 0.99, "first_radiance": 0.95, "last_radiance": 6.31, "diff": 5.36, "log_ratio": 1.323, "slope": 0.417, "peak_last": 10.5, "total_gain": 26.8, "type": "emergence"}}, {"type": "Feature", "geometry": {"type": "Point", "coordinates": [85.43264, 23.28264]}, "properties": {"site_id": 220, "n_pixels": 3, "area_km2": 0.59, "first_radiance": 0.71, "last_radiance": 3.12, "diff": 2.41, "log_ratio": 0.88, "slope": 0.27, "peak_last": 3.22, "total_gain": 7.2, "type": "emergence"}}, {"type": "Feature", "geometry": {"type": "Point", "coordinates": [85.35625, 23.26292]}, "properties": {"site_id": 221, "n_pixels": 5, "area_km2": 0.99, "first_radiance": 0.85, "last_radiance": 3.56, "diff": 2.71, "log_ratio": 0.903, "slope": 0.252, "peak_last": 4.06, "total_gain": 13.6, "type": "emergence"}}, {"type": "Feature", "geometry": {"type": "Point", "coordinates": [85.40529, 23.26394]}, "properties": {"site_id": 222, "n_pixels": 13, "area_km2": 2.57, "first_radiance": 0.75, "last_radiance": 6.17, "diff": 5.41, "log_ratio": 1.408, "slope": 0.506, "peak_last": 10.04, "total_gain": 70.4, "type": "emergence"}}, {"type": "Feature", "geometry": {"type": "Point", "coordinates": [85.43625, 23.26375]}, "properties": {"site_id": 223, "n_pixels": 5, "area_km2": 0.99, "first_radiance": 0.85, "last_radiance": 3.44, "diff": 2.58, "log_ratio": 0.873, "slope": 0.277, "peak_last": 3.82, "total_gain": 12.9, "type": "emergence"}}, {"type": "Feature", "geometry": {"type": "Point", "coordinates": [85.27431, 23.25764]}, "properties": {"site_id": 224, "n_pixels": 3, "area_km2": 0.59, "first_radiance": 0.86, "last_radiance": 4.29, "diff": 3.43, "log_ratio": 1.047, "slope": 0.319, "peak_last": 4.62, "total_gain": 10.3, "type": "emergence"}}, {"type": "Feature", "geometry": {"type": "Point", "coordinates": [85.50208, 23.205]}, "properties": {"site_id": 225, "n_pixels": 20, "area_km2": 3.95, "first_radiance": 0.45, "last_radiance": 5.09, "diff": 4.64, "log_ratio": 1.434, "slope": 0.434, "peak_last": 8.91, "total_gain": 92.7, "type": "emergence"}}, {"type": "Feature", "geometry": {"type": "Point", "coordinates": [85.55347, 23.19236]}, "properties": {"site_id": 226, "n_pixels": 3, "area_km2": 0.59, "first_radiance": 0.88, "last_radiance": 3.77, "diff": 2.9, "log_ratio": 0.933, "slope": 0.325, "peak_last": 3.89, "total_gain": 8.7, "type": "emergence"}}, {"type": "Feature", "geometry": {"type": "Point", "coordinates": [85.16708, 23.18458]}, "properties": {"site_id": 227, "n_pixels": 5, "area_km2": 0.99, "first_radiance": 0.0, "last_radiance": 3.54, "diff": 3.54, "log_ratio": 1.513, "slope": 0.315, "peak_last": 3.74, "total_gain": 17.7, "type": "emergence"}}, {"type": "Feature", "geometry": {"type": "Point", "coordinates": [85.32083, 23.1875]}, "properties": {"site_id": 228, "n_pixels": 4, "area_km2": 0.79, "first_radiance": 0.82, "last_radiance": 4.75, "diff": 3.93, "log_ratio": 1.15, "slope": 0.332, "peak_last": 5.55, "total_gain": 15.7, "type": "emergence"}}, {"type": "Feature", "geometry": {"type": "Point", "coordinates": [85.58937, 23.16618]}, "properties": {"site_id": 229, "n_pixels": 60, "area_km2": 11.87, "first_radiance": 1.93, "last_radiance": 8.37, "diff": 6.44, "log_ratio": 1.164, "slope": 0.712, "peak_last": 19.23, "total_gain": 386.6, "type": "growth"}}, {"type": "Feature", "geometry": {"type": "Point", "coordinates": [85.28667, 23.0575]}, "properties": {"site_id": 230, "n_pixels": 10, "area_km2": 1.98, "first_radiance": 8.36, "last_radiance": 17.9, "diff": 9.54, "log_ratio": 0.703, "slope": 0.923, "peak_last": 26.44, "total_gain": 95.4, "type": "growth"}}, {"type": "Feature", "geometry": {"type": "Point", "coordinates": [85.30486, 23.05347]}, "properties": {"site_id": 231, "n_pixels": 3, "area_km2": 0.59, "first_radiance": 0.9, "last_radiance": 3.36, "diff": 2.45, "log_ratio": 0.829, "slope": 0.283, "peak_last": 3.55, "total_gain": 7.4, "type": "emergence"}}, {"type": "Feature", "geometry": {"type": "Point", "coordinates": [85.68125, 23.0474]}, "properties": {"site_id": 232, "n_pixels": 8, "area_km2": 1.58, "first_radiance": 0.65, "last_radiance": 3.97, "diff": 3.32, "log_ratio": 1.105, "slope": 0.35, "peak_last": 5.47, "total_gain": 26.6, "type": "emergence"}}, {"type": "Feature", "geometry": {"type": "Point", "coordinates": [85.64514, 23.04514]}, "properties": {"site_id": 233, "n_pixels": 3, "area_km2": 0.59, "first_radiance": 0.73, "last_radiance": 3.78, "diff": 3.05, "log_ratio": 1.017, "slope": 0.332, "peak_last": 4.05, "total_gain": 9.1, "type": "emergence"}}, {"type": "Feature", "geometry": {"type": "Point", "coordinates": [84.53625, 23.03792]}, "properties": {"site_id": 234, "n_pixels": 5, "area_km2": 0.99, "first_radiance": 10.25, "last_radiance": 18.46, "diff": 8.21, "log_ratio": 0.548, "slope": 0.772, "peak_last": 22.74, "total_gain": 41.1, "type": "growth"}}, {"type": "Feature", "geometry": {"type": "Point", "coordinates": [85.28889, 23.03403]}, "properties": {"site_id": 235, "n_pixels": 18, "area_km2": 3.56, "first_radiance": 0.56, "last_radiance": 16.72, "diff": 16.16, "log_ratio": 2.43, "slope": 1.611, "peak_last": 65.27, "total_gain": 290.9, "type": "emergence"}}, {"type": "Feature", "geometry": {"type": "Point", "coordinates": [85.74375, 23.02083]}, "properties": {"site_id": 236, "n_pixels": 4, "area_km2": 0.79, "first_radiance": 0.27, "last_radiance": 3.33, "diff": 3.06, "log_ratio": 1.227, "slope": 0.264, "peak_last": 3.53, "total_gain": 12.2, "type": "emergence"}}, {"type": "Feature", "geometry": {"type": "Point", "coordinates": [85.85833, 22.975]}, "properties": {"site_id": 237, "n_pixels": 4, "area_km2": 0.79, "first_radiance": 0.6, "last_radiance": 3.82, "diff": 3.22, "log_ratio": 1.102, "slope": 0.347, "peak_last": 3.95, "total_gain": 12.9, "type": "emergence"}}, {"type": "Feature", "geometry": {"type": "Point", "coordinates": [85.9, 22.97083]}, "properties": {"site_id": 238, "n_pixels": 4, "area_km2": 0.79, "first_radiance": 0.75, "last_radiance": 3.74, "diff": 2.99, "log_ratio": 0.998, "slope": 0.283, "peak_last": 3.98, "total_gain": 12.0, "type": "emergence"}}, {"type": "Feature", "geometry": {"type": "Point", "coordinates": [85.96319, 22.95764]}, "properties": {"site_id": 239, "n_pixels": 3, "area_km2": 0.59, "first_radiance": 3.47, "last_radiance": 9.48, "diff": 6.01, "log_ratio": 0.853, "slope": 0.522, "peak_last": 10.25, "total_gain": 18.0, "type": "growth"}}, {"type": "Feature", "geometry": {"type": "Point", "coordinates": [86.06389, 22.93056]}, "properties": {"site_id": 240, "n_pixels": 6, "area_km2": 1.19, "first_radiance": 1.47, "last_radiance": 10.06, "diff": 8.59, "log_ratio": 1.499, "slope": 0.698, "peak_last": 14.55, "total_gain": 51.6, "type": "growth"}}, {"type": "Feature", "geometry": {"type": "Point", "coordinates": [86.0625, 22.875]}, "properties": {"site_id": 241, "n_pixels": 4, "area_km2": 0.79, "first_radiance": 6.65, "last_radiance": 13.89, "diff": 7.24, "log_ratio": 0.666, "slope": 0.899, "peak_last": 16.43, "total_gain": 29.0, "type": "growth"}}, {"type": "Feature", "geometry": {"type": "Point", "coordinates": [86.20486, 22.84861]}, "properties": {"site_id": 242, "n_pixels": 6, "area_km2": 1.19, "first_radiance": 16.34, "last_radiance": 24.7, "diff": 8.36, "log_ratio": 0.394, "slope": 0.652, "peak_last": 29.5, "total_gain": 50.2, "type": "growth"}}, {"type": "Feature", "geometry": {"type": "Point", "coordinates": [86.23324, 22.83777]}, "properties": {"site_id": 243, "n_pixels": 23, "area_km2": 4.56, "first_radiance": 18.07, "last_radiance": 27.17, "diff": 9.1, "log_ratio": 0.39, "slope": 0.818, "peak_last": 44.52, "total_gain": 209.4, "type": "growth"}}, {"type": "Feature", "geometry": {"type": "Point", "coordinates": [86.18993, 22.79761]}, "properties": {"site_id": 244, "n_pixels": 397, "area_km2": 78.74, "first_radiance": 27.34, "last_radiance": 39.86, "diff": 12.52, "log_ratio": 0.366, "slope": 1.077, "peak_last": 212.37, "total_gain": 4971.5, "type": "growth"}}, {"type": "Feature", "geometry": {"type": "Point", "coordinates": [86.26131, 22.82708]}, "properties": {"site_id": 245, "n_pixels": 14, "area_km2": 2.78, "first_radiance": 5.83, "last_radiance": 14.76, "diff": 8.93, "log_ratio": 0.837, "slope": 0.776, "peak_last": 23.51, "total_gain": 125.1, "type": "growth"}}, {"type": "Feature", "geometry": {"type": "Point", "coordinates": [86.28819, 22.81875]}, "properties": {"site_id": 246, "n_pixels": 9, "area_km2": 1.78, "first_radiance": 4.07, "last_radiance": 13.02, "diff": 8.95, "log_ratio": 1.017, "slope": 0.778, "peak_last": 19.86, "total_gain": 80.5, "type": "growth"}}, {"type": "Feature", "geometry": {"type": "Point", "coordinates": [86.03125, 22.80104]}, "properties": {"site_id": 247, "n_pixels": 4, "area_km2": 0.79, "first_radiance": 5.69, "last_radiance": 11.84, "diff": 6.15, "log_ratio": 0.653, "slope": 0.649, "peak_last": 13.45, "total_gain": 24.6, "type": "growth"}}, {"type": "Feature", "geometry": {"type": "Point", "coordinates": [86.025, 22.78333]}, "properties": {"site_id": 248, "n_pixels": 4, "area_km2": 0.79, "first_radiance": 1.6, "last_radiance": 9.14, "diff": 7.54, "log_ratio": 1.36, "slope": 0.647, "peak_last": 11.77, "total_gain": 30.2, "type": "growth"}}, {"type": "Feature", "geometry": {"type": "Point", "coordinates": [86.3375, 22.775]}, "properties": {"site_id": 249, "n_pixels": 4, "area_km2": 0.79, "first_radiance": 0.82, "last_radiance": 4.19, "diff": 3.37, "log_ratio": 1.047, "slope": 0.377, "peak_last": 4.37, "total_gain": 13.5, "type": "emergence"}}, {"type": "Feature", "geometry": {"type": "Point", "coordinates": [85.95764, 22.76319]}, "properties": {"site_id": 250, "n_pixels": 3, "area_km2": 0.6, "first_radiance": 0.86, "last_radiance": 4.41, "diff": 3.55, "log_ratio": 1.069, "slope": 0.304, "peak_last": 4.7, "total_gain": 10.7, "type": "emergence"}}, {"type": "Feature", "geometry": {"type": "Point", "coordinates": [86.00375, 22.76042]}, "properties": {"site_id": 251, "n_pixels": 10, "area_km2": 1.98, "first_radiance": 1.3, "last_radiance": 9.26, "diff": 7.96, "log_ratio": 1.494, "slope": 0.863, "peak_last": 20.42, "total_gain": 79.6, "type": "growth"}}, {"type": "Feature", "geometry": {"type": "Point", "coordinates": [85.85565, 22.75327]}, "properties": {"site_id": 252, "n_pixels": 7, "area_km2": 1.39, "first_radiance": 1.37, "last_radiance": 10.57, "diff": 9.19, "log_ratio": 1.584, "slope": 1.294, "peak_last": 15.69, "total_gain": 64.4, "type": "growth"}}, {"type": "Feature", "geometry": {"type": "Point", "coordinates": [86.4006, 22.67351]}, "properties": {"site_id": 253, "n_pixels": 14, "area_km2": 2.78, "first_radiance": 1.28, "last_radiance": 8.3, "diff": 7.02, "log_ratio": 1.405, "slope": 0.656, "peak_last": 17.11, "total_gain": 98.3, "type": "emergence"}}, {"type": "Feature", "geometry": {"type": "Point", "coordinates": [86.37936, 22.64754]}, "properties": {"site_id": 254, "n_pixels": 11, "area_km2": 2.18, "first_radiance": 1.04, "last_radiance": 6.0, "diff": 4.96, "log_ratio": 1.231, "slope": 0.497, "peak_last": 9.11, "total_gain": 54.6, "type": "emergence"}}, {"type": "Feature", "geometry": {"type": "Point", "coordinates": [86.42986, 22.64236]}, "properties": {"site_id": 255, "n_pixels": 3, "area_km2": 0.6, "first_radiance": 0.9, "last_radiance": 3.36, "diff": 2.46, "log_ratio": 0.829, "slope": 0.229, "peak_last": 3.46, "total_gain": 7.4, "type": "emergence"}}, {"type": "Feature", "geometry": {"type": "Point", "coordinates": [84.50764, 22.63819]}, "properties": {"site_id": 256, "n_pixels": 3, "area_km2": 0.6, "first_radiance": 0.85, "last_radiance": 4.43, "diff": 3.58, "log_ratio": 1.078, "slope": 0.439, "peak_last": 5.19, "total_gain": 10.7, "type": "emergence"}}, {"type": "Feature", "geometry": {"type": "Point", "coordinates": [85.90093, 22.57758]}, "properties": {"site_id": 257, "n_pixels": 184, "area_km2": 36.55, "first_radiance": 1.48, "last_radiance": 13.63, "diff": 12.16, "log_ratio": 1.777, "slope": 1.188, "peak_last": 122.85, "total_gain": 2237.1, "type": "emergence"}}, {"type": "Feature", "geometry": {"type": "Point", "coordinates": [85.84479, 22.59271]}, "properties": {"site_id": 258, "n_pixels": 12, "area_km2": 2.38, "first_radiance": 0.48, "last_radiance": 6.95, "diff": 6.47, "log_ratio": 1.681, "slope": 0.381, "peak_last": 13.84, "total_gain": 77.6, "type": "emergence"}}, {"type": "Feature", "geometry": {"type": "Point", "coordinates": [85.85347, 22.55625]}, "properties": {"site_id": 259, "n_pixels": 3, "area_km2": 0.6, "first_radiance": 0.93, "last_radiance": 3.44, "diff": 2.5, "log_ratio": 0.831, "slope": 0.234, "peak_last": 3.94, "total_gain": 7.5, "type": "emergence"}}, {"type": "Feature", "geometry": {"type": "Point", "coordinates": [86.71792, 22.48292]}, "properties": {"site_id": 260, "n_pixels": 5, "area_km2": 0.99, "first_radiance": 6.48, "last_radiance": 13.39, "diff": 6.91, "log_ratio": 0.654, "slope": 0.623, "peak_last": 17.1, "total_gain": 34.5, "type": "growth"}}, {"type": "Feature", "geometry": {"type": "Point", "coordinates": [85.36307, 22.21875]}, "properties": {"site_id": 261, "n_pixels": 22, "area_km2": 4.38, "first_radiance": 2.8, "last_radiance": 9.17, "diff": 6.38, "log_ratio": 0.986, "slope": 0.64, "peak_last": 17.54, "total_gain": 140.3, "type": "growth"}}, {"type": "Feature", "geometry": {"type": "Point", "coordinates": [85.34583, 22.17292]}, "properties": {"site_id": 262, "n_pixels": 16, "area_km2": 3.19, "first_radiance": 0.87, "last_radiance": 5.84, "diff": 4.96, "log_ratio": 1.294, "slope": 0.461, "peak_last": 9.91, "total_gain": 79.4, "type": "emergence"}}, {"type": "Feature", "geometry": {"type": "Point", "coordinates": [85.5005, 22.14382]}, "properties": {"site_id": 263, "n_pixels": 58, "area_km2": 11.56, "first_radiance": 9.95, "last_radiance": 24.17, "diff": 14.22, "log_ratio": 0.832, "slope": 1.31, "peak_last": 67.59, "total_gain": 824.7, "type": "growth"}}, {"type": "Feature", "geometry": {"type": "Point", "coordinates": [85.53437, 22.15]}, "properties": {"site_id": 264, "n_pixels": 4, "area_km2": 0.8, "first_radiance": 0.94, "last_radiance": 3.34, "diff": 2.4, "log_ratio": 0.805, "slope": 0.225, "peak_last": 3.5, "total_gain": 9.6, "type": "emergence"}}, {"type": "Feature", "geometry": {"type": "Point", "coordinates": [85.55972, 22.14514]}, "properties": {"site_id": 265, "n_pixels": 6, "area_km2": 1.2, "first_radiance": 0.6, "last_radiance": 3.87, "diff": 3.27, "log_ratio": 1.11, "slope": 0.344, "peak_last": 5.23, "total_gain": 19.6, "type": "emergence"}}, {"type": "Feature", "geometry": {"type": "Point", "coordinates": [85.52431, 22.12986]}, "properties": {"site_id": 266, "n_pixels": 3, "area_km2": 0.6, "first_radiance": 0.94, "last_radiance": 3.59, "diff": 2.64, "log_ratio": 0.859, "slope": 0.239, "peak_last": 3.98, "total_gain": 7.9, "type": "emergence"}}, {"type": "Feature", "geometry": {"type": "Point", "coordinates": [85.27894, 22.10764]}, "properties": {"site_id": 267, "n_pixels": 9, "area_km2": 1.79, "first_radiance": 7.36, "last_radiance": 15.53, "diff": 8.18, "log_ratio": 0.682, "slope": 0.963, "peak_last": 22.04, "total_gain": 73.6, "type": "growth"}}, {"type": "Feature", "geometry": {"type": "Point", "coordinates": [85.30278, 22.10556]}, "properties": {"site_id": 268, "n_pixels": 6, "area_km2": 1.2, "first_radiance": 4.41, "last_radiance": 11.6, "diff": 7.18, "log_ratio": 0.845, "slope": 0.715, "peak_last": 17.21, "total_gain": 43.1, "type": "growth"}}, {"type": "Feature", "geometry": {"type": "Point", "coordinates": [85.65347, 22.08125]}, "properties": {"site_id": 269, "n_pixels": 6, "area_km2": 1.2, "first_radiance": 0.91, "last_radiance": 3.48, "diff": 2.57, "log_ratio": 0.853, "slope": 0.295, "peak_last": 3.79, "total_gain": 15.4, "type": "emergence"}}, {"type": "Feature", "geometry": {"type": "Point", "coordinates": [85.26406, 22.07135]}, "properties": {"site_id": 270, "n_pixels": 8, "area_km2": 1.6, "first_radiance": 6.26, "last_radiance": 13.86, "diff": 7.59, "log_ratio": 0.715, "slope": 0.97, "peak_last": 18.51, "total_gain": 60.7, "type": "growth"}}, {"type": "Feature", "geometry": {"type": "Point", "coordinates": [85.6625, 22.06771]}, "properties": {"site_id": 271, "n_pixels": 4, "area_km2": 0.8, "first_radiance": 9.57, "last_radiance": 15.63, "diff": 6.05, "log_ratio": 0.453, "slope": 0.927, "peak_last": 16.24, "total_gain": 24.2, "type": "growth"}}]}